{
"type": "FeatureCollection",
"name": "C:\\Users\\ADMIN\\Desktop\\SDP\\DOCUMENTACION POT DCO 555 2021\\Estructura_Socioecono_Crea_Inn\\Formatos_Datos_Abiertos\\FormatoGJSON\\Plaza_mercado.geojson",
"features": [
{ "type": "Feature", "properties": { "CODIGO_PLA": "06314", "NUMERO_PRE": "2", "NUMERO_EQU": "1", "IDENTIFICA": "", "SUELO": "Urbano", "CODIGO_EQU": "9-0050", "RUPI": "", "CODIGO_PI_": "", "NOMBRE": "PLAZA DE MERCADO LAS NIEVES", "DIRECCION": "CL 20 8 73", "TELEFONO": "", "SERVICIO_S": "9", "CHIP": "AAA0029WCLF", "CODIGO_UPZ": "93", "CODIGO_LOC": "3", "CODIGO_UPR": "0", "AREA_PREDI": "1.92450000000e+03", "AREA_CONST": "1.68580000000e+03", "HOMOLOGADO": "", "TIPO": "131", "ESCALA_POT": "3", "AREA_OCUPA": "0.00000000000e+00", "CARACTER": "PRIV", "FUNCION": "2", "ACTO_ADMIN": "DEC", "NUMERO_ACT": "555", "FECHA_ACTO": "29\/12\/2021", "NORMATIVA": "En el marco del Decreto 555 del 29 de diciembre de 2021 - Por el cual se adopta la revisión general del Plan de Ordenamiento Territorial de Bogotá", "OBSERVACIO": "", "ESCALA_CAP": "1000", "FECHA_CAPT": "29\/12\/2021", "RESPONSABL": "541", "SHAPE_Leng": "1.77082128247e+02", "SHAPE_Area": "1.90551552019e+03" }, "geometry": { "type": "Polygon", "coordinates": [ [ [ 100567.694500000216067, 101206.7961 ], [ 100580.494400000199676, 101197.596000000834465 ], [ 100595.694199999794364, 101186.095899999141693 ], [ 100585.694099999964, 101169.296 ], [ 100570.693900000303984, 101144.096200000494719 ], [ 100564.093999999575317, 101148.496300000697374 ], [ 100560.69400000013411, 101150.796299999579787 ], [ 100555.593999999575317, 101154.196299999952 ], [ 100552.894100000150502, 101155.996400000527501 ], [ 100549.794099999591708, 101158.096400000154972 ], [ 100538.594200000166893, 101165.696499999613 ], [ 100542.994199999608099, 101173.096400000154972 ], [ 100545.294300000183284, 101176.996400000527501 ], [ 100548.694299999624491, 101182.796299999579787 ], [ 100549.5943, 101184.296299999579787 ], [ 100550.394299999810755, 101185.596300000324845 ], [ 100552.69440000038594, 101189.496300000697374 ], [ 100553.994400000199676, 101191.596300000324845 ], [ 100555.894399999640882, 101194.79619999975 ], [ 100556.594399999827147, 101196.096200000494719 ], [ 100557.69440000038594, 101197.79619999975 ], [ 100561.4945, 101204.396199999377131 ], [ 100564.894500000402331, 101201.996099999174476 ], [ 100567.694500000216067, 101206.7961 ] ] ] } },
{ "type": "Feature", "properties": { "CODIGO_PLA": "02695", "NUMERO_PRE": "1", "NUMERO_EQU": "1", "IDENTIFICA": "", "SUELO": "Urbano", "CODIGO_EQU": "9-0028", "RUPI": "", "CODIGO_PI_": "", "NOMBRE": "PLAZA DE MERCADO PALOQUEMAO", "DIRECCION": "AC 19 25 2", "TELEFONO": "", "SERVICIO_S": "9", "CHIP": "AAA0072YJZM", "CODIGO_UPZ": "102", "CODIGO_LOC": "14", "CODIGO_UPR": "0", "AREA_PREDI": "4.62401000000e+04", "AREA_CONST": "2.30567000000e+04", "HOMOLOGADO": "", "TIPO": "131", "ESCALA_POT": "1", "AREA_OCUPA": "0.00000000000e+00", "CARACTER": "PRIV", "FUNCION": "2", "ACTO_ADMIN": "DEC", "NUMERO_ACT": "555", "FECHA_ACTO": "29\/12\/2021", "NORMATIVA": "En el marco del Decreto 555 del 29 de diciembre de 2021 - Por el cual se adopta la revisión general del Plan de Ordenamiento Territorial de Bogotá", "OBSERVACIO": "", "ESCALA_CAP": "1000", "FECHA_CAPT": "29\/12\/2021", "RESPONSABL": "541", "SHAPE_Leng": "8.61097811834e+02", "SHAPE_Area": "4.63827115213e+04" }, "geometry": { "type": "Polygon", "coordinates": [ [ [ 99286.25719999987632, 102094.766100000590086 ], [ 99270.147099999710917, 102075.649000000208616 ], [ 99106.334099999628961, 102210.848300000652671 ], [ 99254.258899999782443, 102385.659499999135733 ], [ 99403.243300000205636, 102237.803400000557303 ], [ 99365.943900000303984, 102191.061799999326468 ], [ 99358.147099999710917, 102181.291400000452995 ], [ 99350.350399999879301, 102171.520999999716878 ], [ 99342.476599999703467, 102161.812699999660254 ], [ 99334.602800000458956, 102152.104299999773502 ], [ 99326.54590000025928, 102142.547299999744 ], [ 99318.489099999889731, 102132.990299999713898 ], [ 99310.431800000369549, 102123.433700000867248 ], [ 99302.372000000439584, 102113.879100000485778 ], [ 99294.312300000339746, 102104.324599999934 ], [ 99286.25719999987632, 102094.766100000590086 ] ] ] } },
{ "type": "Feature", "properties": { "CODIGO_PLA": "04720", "NUMERO_PRE": "7", "NUMERO_EQU": "1", "IDENTIFICA": "", "SUELO": "Urbano", "CODIGO_EQU": "9-0029", "RUPI": "", "CODIGO_PI_": "", "NOMBRE": "PLAZA DE MERCADO BARRIO TUNJUELITO", "DIRECCION": "KR 14 53 45 SUR", "TELEFONO": "", "SERVICIO_S": "9", "CHIP": "AAA0021XFXS", "CODIGO_UPZ": "62", "CODIGO_LOC": "6", "CODIGO_UPR": "0", "AREA_PREDI": "2.21828705222e+03", "AREA_CONST": "1.60475000000e+03", "HOMOLOGADO": "", "TIPO": "131", "ESCALA_POT": "3", "AREA_OCUPA": "0.00000000000e+00", "CARACTER": "PRIV", "FUNCION": "2", "ACTO_ADMIN": "DEC", "NUMERO_ACT": "555", "FECHA_ACTO": "29\/12\/2021", "NORMATIVA": "En el marco del Decreto 555 del 29 de diciembre de 2021 - Por el cual se adopta la revisión general del Plan de Ordenamiento Territorial de Bogotá", "OBSERVACIO": "", "ESCALA_CAP": "1000", "FECHA_CAPT": "29\/12\/2021", "RESPONSABL": "541", "SHAPE_Leng": "2.30176532587e+02", "SHAPE_Area": "2.21828705222e+03" }, "geometry": { "type": "Polygon", "coordinates": [ [ [ 94554.990500000305474, 96234.135099999606609 ], [ 94558.800400000065565, 96226.305099999532104 ], [ 94558.640399999916553, 96226.23509999923408 ], [ 94558.490399999544024, 96226.155099999159575 ], [ 94558.340400000102818, 96226.085100000724196 ], [ 94558.180399999953806, 96225.995100000873208 ], [ 94558.030399999581277, 96225.915100000798702 ], [ 94557.880400000140071, 96225.825099999085069 ], [ 94557.730399999767542, 96225.73509999923408 ], [ 94557.590400000102818, 96225.645099999383092 ], [ 94557.440399999730289, 96225.555099999532104 ], [ 94557.300400000065565, 96225.455099999904633 ], [ 94557.160400000400841, 96225.355100000277162 ], [ 94557.020399999804795, 96225.255100000649691 ], [ 94556.880400000140071, 96225.155099999159575 ], [ 94556.740399999544024, 96225.045099999755621 ], [ 94556.610399999655783, 96224.935100000351667 ], [ 94556.480399999767542, 96224.825099999085069 ], [ 94556.350399999879301, 96224.715099999681115 ], [ 94556.2204, 96224.595100000500679 ], [ 94556.090400000102818, 96224.475099999457598 ], [ 94555.9704, 96224.355100000277162 ], [ 94555.850399999879301, 96224.23509999923408 ], [ 94555.730399999767542, 96224.115100000053644 ], [ 94555.610399999655783, 96223.98509999923408 ], [ 94555.490399999544024, 96223.855100000277162 ], [ 94555.380400000140071, 96223.725099999457598 ], [ 94555.270399999804795, 96223.595100000500679 ], [ 94555.160400000400841, 96223.455099999904633 ], [ 94555.050400000065565, 96223.325099999085069 ], [ 94554.950400000438094, 96223.185100000351667 ], [ 94554.850399999879301, 96223.045099999755621 ], [ 94554.75040000025183, 96222.905099999159575 ], [ 94554.650399999693036, 96222.765100000426173 ], [ 94554.560399999842048, 96222.615100000053644 ], [ 94554.4704, 96222.465099999681115 ], [ 94554.380400000140071, 96222.325099999085069 ], [ 94554.290400000289083, 96222.175100000575185 ], [ 94554.210400000214577, 96222.015100000426173 ], [ 94554.130400000140071, 96221.865100000053644 ], [ 94554.050400000065565, 96221.715099999681115 ], [ 94553.9704, 96221.555099999532104 ], [ 94553.900399999693036, 96221.405099999159575 ], [ 94553.830400000326335, 96221.245100000873208 ], [ 94553.760400000028312, 96221.085100000724196 ], [ 94553.700400000438094, 96220.925100000575185 ], [ 94553.640399999916553, 96220.765100000426173 ], [ 94553.580400000326335, 96220.595100000500679 ], [ 94553.520399999804795, 96220.435100000351667 ], [ 94553.4704, 96220.275100000202656 ], [ 94553.420400000177324, 96220.105100000277162 ], [ 94553.370400000363588, 96219.94510000012815 ], [ 94553.330400000326335, 96219.775100000202656 ], [ 94553.290400000289083, 96219.605100000277162 ], [ 94553.25040000025183, 96219.435100000351667 ], [ 94553.210400000214577, 96219.265100000426173 ], [ 94553.180399999953806, 96219.095100000500679 ], [ 94553.150399999693036, 96218.925100000575185 ], [ 94553.120400000363588, 96218.755100000649691 ], [ 94553.100399999879301, 96218.585100000724196 ], [ 94553.080400000326335, 96218.415100000798702 ], [ 94553.060399999842048, 96218.245100000873208 ], [ 94553.040400000289083, 96218.075099999085069 ], [ 94553.030399999581277, 96217.895099999383092 ], [ 94553.020399999804795, 96217.725099999457598 ], [ 94553.020399999804795, 96217.555099999532104 ], [ 94553.010400000028312, 96217.385099999606609 ], [ 94553.010400000028312, 96217.205099999904633 ], [ 94553.020399999804795, 96217.035099999979138 ], [ 94553.020399999804795, 96216.865100000053644 ], [ 94553.030399999581277, 96216.69510000012815 ], [ 94553.040400000289083, 96216.515100000426173 ], [ 94553.060399999842048, 96216.345100000500679 ], [ 94553.080400000326335, 96216.175100000575185 ], [ 94553.100399999879301, 96216.005100000649691 ], [ 94553.120400000363588, 96215.835100000724196 ], [ 94553.150399999693036, 96215.665100000798702 ], [ 94553.180399999953806, 96215.495100000873208 ], [ 94553.21030000038445, 96215.325099999085069 ], [ 94553.250300000421703, 96215.155099999159575 ], [ 94553.290300000458956, 96214.98509999923408 ], [ 94553.330299999564886, 96214.815099999308586 ], [ 94553.380300000309944, 96214.645099999383092 ], [ 94553.43030000012368, 96214.475099999457598 ], [ 94544.43030000012368, 96210.105200000107288 ], [ 94535.43030000012368, 96205.735300000756979 ], [ 94526.440299999900162, 96201.375399999320507 ], [ 94517.440299999900162, 96197.005499999970198 ], [ 94501.71059999987483, 96229.385600000619888 ], [ 94510.700600000098348, 96233.755499999970198 ], [ 94519.700699999928474, 96238.115399999544024 ], [ 94521.880599999800324, 96233.625399999320507 ], [ 94530.880599999800324, 96237.985300000756979 ], [ 94517.330900000408292, 96265.865299999713898 ], [ 94535.591000000014901, 96274.735200000926852 ], [ 94549.140700000338256, 96246.855100000277162 ], [ 94554.990500000305474, 96234.135099999606609 ] ] ] } },
{ "type": "Feature", "properties": { "CODIGO_PLA": "04827", "NUMERO_PRE": "2", "NUMERO_EQU": "1", "IDENTIFICA": "", "SUELO": "Urbano", "CODIGO_EQU": "9-0034", "RUPI": "", "CODIGO_PI_": "", "NOMBRE": "PLAZA DE MERCADO SAN BLAS", "DIRECCION": "TV 2 B ESTE 19 27 SUR", "TELEFONO": "", "SERVICIO_S": "9", "CHIP": "AAA0000SRPA", "CODIGO_UPZ": "33", "CODIGO_LOC": "4", "CODIGO_UPR": "0", "AREA_PREDI": "4.85020000000e+02", "AREA_CONST": "7.64560000000e+02", "HOMOLOGADO": "", "TIPO": "131", "ESCALA_POT": "3", "AREA_OCUPA": "0.00000000000e+00", "CARACTER": "PRIV", "FUNCION": "2", "ACTO_ADMIN": "DEC", "NUMERO_ACT": "555", "FECHA_ACTO": "29\/12\/2021", "NORMATIVA": "En el marco del Decreto 555 del 29 de diciembre de 2021 - Por el cual se adopta la revisión general del Plan de Ordenamiento Territorial de Bogotá", "OBSERVACIO": "", "ESCALA_CAP": "1000", "FECHA_CAPT": "29\/12\/2021", "RESPONSABL": "541", "SHAPE_Leng": "1.24089255462e+02", "SHAPE_Area": "4.91704344257e+02" }, "geometry": { "type": "Polygon", "coordinates": [ [ [ 99167.805800000205636, 97081.871400000527501 ], [ 99154.033400000073016, 97075.919700000435114 ], [ 99146.910899999551475, 97078.542400000616908 ], [ 99146.426599999889731, 97077.229199999943376 ], [ 99134.441800000146031, 97072.195699999108911 ], [ 99133.237099999561906, 97072.25650000013411 ], [ 99132.865199999883771, 97072.354800000786781 ], [ 99132.495099999941885, 97072.459499999880791 ], [ 99132.126799999736249, 97072.570800000801682 ], [ 99131.760599999688566, 97072.688400000333786 ], [ 99131.396399999968708, 97072.812400000169873 ], [ 99131.034500000067055, 97072.942700000479817 ], [ 99130.674899999983609, 97073.079299999400973 ], [ 99130.317699999548495, 97073.222200000658631 ], [ 99129.963100000284612, 97073.371300000697374 ], [ 99129.611200000159442, 97073.526499999687076 ], [ 99129.262000000104308, 97073.687899999320507 ], [ 99128.915699999779463, 97073.855299999937415 ], [ 99128.572300000116229, 97074.028799999505281 ], [ 99128.232099999673665, 97074.208200000226498 ], [ 99127.894999999552965, 97074.393600000068545 ], [ 99127.561200000345707, 97074.584799999371171 ], [ 99127.230800000019372, 97074.7818 ], [ 99126.903800000436604, 97074.98450000025332 ], [ 99126.580500000156462, 97075.192900000140071 ], [ 99126.260900000110269, 97075.406899999827147 ], [ 99125.945000000298023, 97075.626499999314547 ], [ 99125.63300000037998, 97075.851500000804663 ], [ 99125.325000000186265, 97076.082000000402331 ], [ 99125.021099999547005, 97076.317700000479817 ], [ 99124.721300000324845, 97076.558800000697374 ], [ 99124.425800000317395, 97076.804999999701977 ], [ 99124.134600000455976, 97077.056399999186397 ], [ 99123.847799999639392, 97077.31279999949038 ], [ 99123.565600000321865, 97077.574200000613928 ], [ 99123.287999999709427, 97077.840500000864267 ], [ 99123.014999999664724, 97078.111600000411272 ], [ 99122.746899999678135, 97078.387399999424815 ], [ 99122.483599999919534, 97078.667799999937415 ], [ 99122.225200000219047, 97078.952800000086427 ], [ 99121.971800000406802, 97079.242200000211596 ], [ 99121.723600000143051, 97079.536100000143051 ], [ 99121.480399999767542, 97079.83420000039041 ], [ 99121.242600000463426, 97080.136499999091029 ], [ 99121.009999999776483, 97080.442900000140071 ], [ 99120.7829, 97080.753299999982119 ], [ 99120.561099999584258, 97081.067700000479817 ], [ 99119.980600000359118, 97081.922100000083447 ], [ 99121.35329999960959, 97089.479100000113249 ], [ 99135.749699999578297, 97082.957800000905991 ], [ 99139.395499999634922, 97081.309699999168515 ], [ 99141.309999999590218, 97087.52419999986887 ], [ 99140.390599999576807, 97087.912799999117851 ], [ 99142.267900000326335, 97093.190099999308586 ], [ 99164.486600000411272, 97083.870200000703335 ], [ 99164.583800000138581, 97083.829399999231 ], [ 99167.501799999736249, 97083.13399999961257 ], [ 99167.805800000205636, 97081.871400000527501 ] ] ] } },
{ "type": "Feature", "properties": { "CODIGO_PLA": "01529", "NUMERO_PRE": "1", "NUMERO_EQU": "10", "IDENTIFICA": "", "SUELO": "Urbano", "CODIGO_EQU": "9-0051", "RUPI": "", "CODIGO_PI_": "", "NOMBRE": "PLAZA DE MERCADO BELLO HORIZONTE", "DIRECCION": "KR 3 ESTE 31C 08 SUR MJ 5", "TELEFONO": "", "SERVICIO_S": "9", "CHIP": "AAA0002TCJZ", "CODIGO_UPZ": "34", "CODIGO_LOC": "4", "CODIGO_UPR": "0", "AREA_PREDI": "0.00000000000e+00", "AREA_CONST": "4.18000000000e+02", "HOMOLOGADO": "", "TIPO": "131", "ESCALA_POT": "3", "AREA_OCUPA": "0.00000000000e+00", "CARACTER": "PRIV", "FUNCION": "2", "ACTO_ADMIN": "DEC", "NUMERO_ACT": "555", "FECHA_ACTO": "29\/12\/2021", "NORMATIVA": "En el marco del Decreto 555 del 29 de diciembre de 2021 - Por el cual se adopta la revisión general del Plan de Ordenamiento Territorial de Bogotá", "OBSERVACIO": "", "ESCALA_CAP": "", "FECHA_CAPT": "29\/12\/2021", "RESPONSABL": "541", "SHAPE_Leng": "8.44074329680e+02", "SHAPE_Area": "1.30578544237e+04" }, "geometry": { "type": "Polygon", "coordinates": [ [ [ 98442.953599999658763, 95878.318600000813603 ], [ 98437.100700000301003, 95868.628799999132752 ], [ 98435.195600000210106, 95871.061699999496341 ], [ 98404.547399999573827, 95846.123099999502301 ], [ 98402.525399999693036, 95847.220100000500679 ], [ 98388.813400000333786, 95827.151100000366569 ], [ 98388.644600000232458, 95827.278699999675155 ], [ 98380.792500000447035, 95833.216299999505281 ], [ 98380.393699999898672, 95833.517899999395013 ], [ 98378.000799999572337, 95835.327299999073148 ], [ 98374.012699999846518, 95838.343100000172853 ], [ 98371.265599999576807, 95840.420399999246001 ], [ 98367.635400000028312, 95835.020400000736117 ], [ 98367.3602, 95834.610999999567866 ], [ 98365.685499999672174, 95832.120600000023842 ], [ 98362.164599999785423, 95832.449200000613928 ], [ 98355.935700000263751, 95833.0307 ], [ 98352.251699999906123, 95833.37470000050962 ], [ 98351.545599999837577, 95833.440600000321865 ], [ 98350.503100000321865, 95833.29839999973774 ], [ 98349.215099999681115, 95833.122600000351667 ], [ 98346.855499999597669, 95832.800599999725819 ], [ 98342.015599999576807, 95831.550699999555945 ], [ 98341.935600000433624, 95832.550699999555945 ], [ 98330.625599999912083, 95828.530799999833107 ], [ 98267.052799999713898, 95881.941600000485778 ], [ 98267.809299999848008, 95882.887599999085069 ], [ 98260.046900000423193, 95889.662000000476837 ], [ 98257.790300000458956, 95891.634600000455976 ], [ 98255.533800000324845, 95893.607100000604987 ], [ 98250.940600000321865, 95897.621999999508262 ], [ 98249.049200000241399, 95899.27170000039041 ], [ 98246.33739999961108, 95901.636800000444055 ], [ 98241.754099999554455, 95905.651799999177456 ], [ 98237.231100000441074, 95909.606699999421835 ], [ 98232.036100000143051, 95914.139599999412894 ], [ 98230.685800000093877, 95915.319399999454618 ], [ 98228.050300000235438, 95917.622400000691414 ], [ 98224.2034, 95920.98369999974966 ], [ 98261.38300000037998, 95961.667099999263883 ], [ 98270.8284, 95953.574599999934435 ], [ 98290.589300000108778, 95936.644500000402331 ], [ 98292.335900000296533, 95935.148199999704957 ], [ 98305.706500000320375, 95923.692800000309944 ], [ 98335.448200000450015, 95899.620200000703335 ], [ 98335.221699999645352, 95899.365800000727177 ], [ 98351.858300000429153, 95884.072599999606609 ], [ 98315.940100000239909, 95840.869999999180436 ], [ 98330.625199999660254, 95828.532299999147654 ], [ 98381.501899999566376, 95890.202500000596046 ], [ 98414.852099999785423, 95926.96199999935925 ], [ 98385.103199999779463, 95952.899700000882149 ], [ 98394.734699999913573, 95963.084799999371171 ], [ 98424.847199999727309, 95935.20160000026226 ], [ 98459.99100000038743, 95906.50139999948442 ], [ 98442.953599999658763, 95878.318600000813603 ] ] ] } },
{ "type": "Feature", "properties": { "CODIGO_PLA": "04825", "NUMERO_PRE": "1", "NUMERO_EQU": "1", "IDENTIFICA": "", "SUELO": "Urbano", "CODIGO_EQU": "9-0032", "RUPI": "", "CODIGO_PI_": "", "NOMBRE": "PLAZA DE MERCADO COOPERATIVA DEL SUR ORIENTE", "DIRECCION": "CL 42 A SUR 3 C 92 ESTE", "TELEFONO": "", "SERVICIO_S": "9", "CHIP": "AAA0003OYJZ", "CODIGO_UPZ": "50", "CODIGO_LOC": "4", "CODIGO_UPR": "0", "AREA_PREDI": "4.73710046000e+02", "AREA_CONST": "7.38700000000e+02", "HOMOLOGADO": "", "TIPO": "131", "ESCALA_POT": "3", "AREA_OCUPA": "0.00000000000e+00", "CARACTER": "PRIV", "FUNCION": "2", "ACTO_ADMIN": "DEC", "NUMERO_ACT": "555", "FECHA_ACTO": "29\/12\/2021", "NORMATIVA": "En el marco del Decreto 555 del 29 de diciembre de 2021 - Por el cual se adopta la revisión general del Plan de Ordenamiento Territorial de Bogotá", "OBSERVACIO": "", "ESCALA_CAP": "1000", "FECHA_CAPT": "29\/12\/2021", "RESPONSABL": "541", "SHAPE_Leng": "9.55998437716e+01", "SHAPE_Area": "4.73710961153e+02" }, "geometry": { "type": "Polygon", "coordinates": [ [ [ 98298.052099999971688, 94754.434299999848008 ], [ 98273.785500000230968, 94732.815400000661612 ], [ 98265.348299999721348, 94733.846899999305606 ], [ 98268.748800000175834, 94758.614499999210238 ], [ 98273.698699999600649, 94757.908399999141693 ], [ 98279.638500000350177, 94757.06110000051558 ], [ 98289.142300000414252, 94755.705299999564886 ], [ 98298.052099999971688, 94754.434299999848008 ] ] ] } },
{ "type": "Feature", "properties": { "CODIGO_PLA": "04833", "NUMERO_PRE": "13", "NUMERO_EQU": "1", "IDENTIFICA": "", "SUELO": "Urbano", "CODIGO_EQU": "9-0037", "RUPI": "", "CODIGO_PI_": "", "NOMBRE": "PLAZA DE MERCADO SAN PABLO I SECTOR O PIAMONTE", "DIRECCION": "TV 78 L 67 10 SUR", "TELEFONO": "", "SERVICIO_S": "9", "CHIP": "AAA0046HAHK", "CODIGO_UPZ": "85", "CODIGO_LOC": "7", "CODIGO_UPR": "0", "AREA_PREDI": "6.87280991000e+02", "AREA_CONST": "1.19948000000e+03", "HOMOLOGADO": "", "TIPO": "131", "ESCALA_POT": "3", "AREA_OCUPA": "0.00000000000e+00", "CARACTER": "PRIV", "FUNCION": "2", "ACTO_ADMIN": "DEC", "NUMERO_ACT": "555", "FECHA_ACTO": "29\/12\/2021", "NORMATIVA": "En el marco del Decreto 555 del 29 de diciembre de 2021 - Por el cual se adopta la revisión general del Plan de Ordenamiento Territorial de Bogotá", "OBSERVACIO": "", "ESCALA_CAP": "1000", "FECHA_CAPT": "29\/12\/2021", "RESPONSABL": "541", "SHAPE_Leng": "1.30764681028e+02", "SHAPE_Area": "6.87280469336e+02" }, "geometry": { "type": "Polygon", "coordinates": [ [ [ 87690.988099999725819, 100914.757500000298023 ], [ 87687.68680000025779, 100914.408199999481 ], [ 87687.822900000028312, 100914.521999999880791 ], [ 87691.598699999973178, 100917.680299999192357 ], [ 87694.3602, 100919.990199999883771 ], [ 87694.649799999780953, 100920.266000000759959 ], [ 87697.2807, 100922.771600000560284 ], [ 87697.502500000409782, 100922.982799999415874 ], [ 87697.6557, 100923.128699999302626 ], [ 87698.134600000455976, 100923.584799999371171 ], [ 87701.294999999925494, 100926.594699999317527 ], [ 87701.656600000336766, 100926.939099999144673 ], [ 87702.189000000245869, 100927.446100000292063 ], [ 87716.669499999843538, 100941.870899999514222 ], [ 87719.543999999761581, 100944.652499999850988 ], [ 87720.827100000344217, 100945.894200000911951 ], [ 87727.441200000233948, 100952.487600000575185 ], [ 87728.279500000178814, 100947.051999999210238 ], [ 87728.785299999639392, 100942.178400000557303 ], [ 87729.28000000026077, 100937.898700000718236 ], [ 87729.785600000061095, 100933.930800000205636 ], [ 87730.389299999922514, 100929.983799999579787 ], [ 87731.736299999989569, 100921.793800000101328 ], [ 87717.049399999901652, 100918.7478 ], [ 87712.809299999848008, 100918.032400000840425 ], [ 87708.470700000412762, 100917.300300000235438 ], [ 87703.836199999786913, 100916.518400000408292 ], [ 87694.647599999792874, 100915.191199999302626 ], [ 87693.444099999964237, 100915.017300000414252 ], [ 87690.988099999725819, 100914.757500000298023 ] ] ] } },
{ "type": "Feature", "properties": { "CODIGO_PLA": "03254", "NUMERO_PRE": "3", "NUMERO_EQU": "1", "IDENTIFICA": "", "SUELO": "Urbano", "CODIGO_EQU": "9-0026", "RUPI": "", "CODIGO_PI_": "", "NOMBRE": "PLAZA DE MERCADO CORVEM", "DIRECCION": "CL 67 SUR 78 J 62", "TELEFONO": "", "SERVICIO_S": "9", "CHIP": "AAA0046HFWF", "CODIGO_UPZ": "85", "CODIGO_LOC": "7", "CODIGO_UPR": "0", "AREA_PREDI": "4.67800000000e+02", "AREA_CONST": "4.67800000000e+02", "HOMOLOGADO": "", "TIPO": "131", "ESCALA_POT": "3", "AREA_OCUPA": "0.00000000000e+00", "CARACTER": "PRIV", "FUNCION": "2", "ACTO_ADMIN": "DEC", "NUMERO_ACT": "555", "FECHA_ACTO": "29\/12\/2021", "NORMATIVA": "En el marco del Decreto 555 del 29 de diciembre de 2021 - Por el cual se adopta la revisión general del Plan de Ordenamiento Territorial de Bogotá", "OBSERVACIO": "", "ESCALA_CAP": "1000", "FECHA_CAPT": "29\/12\/2021", "RESPONSABL": "541", "SHAPE_Leng": "8.90962996242e+01", "SHAPE_Area": "4.61313974908e+02" }, "geometry": { "type": "Polygon", "coordinates": [ [ [ 87771.113800000399351, 100879.438100000843406 ], [ 87750.862900000065565, 100876.253799999132752 ], [ 87749.570000000298023, 100884.148700000718236 ], [ 87748.377700000070035, 100892.059499999508262 ], [ 87768.582100000232458, 100895.540200000628829 ], [ 87773.564799999818206, 100896.040999999269843 ], [ 87776.141400000080466, 100896.299900000914931 ], [ 87777.792200000025332, 100888.7818 ], [ 87779.524799999780953, 100880.664899999275804 ], [ 87771.113800000399351, 100879.438100000843406 ] ] ] } },
{ "type": "Feature", "properties": { "CODIGO_PLA": "00580", "NUMERO_PRE": "1", "NUMERO_EQU": "1", "IDENTIFICA": "", "SUELO": "Urbano", "CODIGO_EQU": "9-0007", "RUPI": "1 4092", "CODIGO_PI_": "", "NOMBRE": "PLAZA DE MERCADO BOYACA", "DIRECCION": "CL 69 A 73 A 45", "TELEFONO": "228 16 50", "SERVICIO_S": "9", "CHIP": "AAA0061LZDE", "CODIGO_UPZ": "30", "CODIGO_LOC": "10", "CODIGO_UPR": "0", "AREA_PREDI": "3.00000000000e+03", "AREA_CONST": "1.01820000000e+03", "HOMOLOGADO": "", "TIPO": "131", "ESCALA_POT": "3", "AREA_OCUPA": "0.00000000000e+00", "CARACTER": "PUBL", "FUNCION": "2", "ACTO_ADMIN": "DEC", "NUMERO_ACT": "555", "FECHA_ACTO": "29\/12\/2021", "NORMATIVA": "En el marco del Decreto 555 del 29 de diciembre de 2021 - Por el cual se adopta la revisión general del Plan de Ordenamiento Territorial de Bogotá", "OBSERVACIO": "", "ESCALA_CAP": "1000", "FECHA_CAPT": "29\/12\/2021", "RESPONSABL": "541", "SHAPE_Leng": "2.60012280921e+02", "SHAPE_Area": "2.99353807497e+03" }, "geometry": { "type": "Polygon", "coordinates": [ [ [ 97540.71169999986887, 109799.313300000503659 ], [ 97534.455500000156462, 109790.258199999108911 ], [ 97510.57799999974668, 109808.423800000920892 ], [ 97521.571899999864399, 109824.409900000318885 ], [ 97525.816700000315905, 109830.593000000342727 ], [ 97530.071399999782443, 109836.766000000759959 ], [ 97534.316100000403821, 109842.949100000783801 ], [ 97538.570899999700487, 109849.132099999114871 ], [ 97543.841500000096858, 109856.791099999 ], [ 97547.009999999776483, 109861.408399999141693 ], [ 97551.254700000397861, 109867.591499999165535 ], [ 97555.509499999694526, 109873.764499999582767 ], [ 97567.237700000405312, 109890.8277000002563 ], [ 97591.115199999883771, 109872.662200000137091 ], [ 97579.779299999587238, 109856.187400000169873 ], [ 97579.548000000417233, 109855.858300000429153 ], [ 97570.908499999903142, 109843.482799999415874 ], [ 97570.707299999892712, 109843.193600000813603 ], [ 97566.965300000272691, 109837.688500000163913 ], [ 97564.430399999953806, 109833.968599999323487 ], [ 97564.259399999864399, 109833.7193 ], [ 97561.885599999688566, 109830.258799999952 ], [ 97559.471499999985099, 109826.738399999216199 ], [ 97559.340699999593198, 109826.548900000751019 ], [ 97556.785899999551475, 109822.849099999293685 ], [ 97554.653500000014901, 109819.75760000012815 ], [ 97554.291400000452995, 109819.219100000336766 ], [ 97545.861700000241399, 109806.812699999660254 ], [ 97545.640399999916553, 109806.493599999696016 ], [ 97540.71169999986887, 109799.313300000503659 ] ] ] } },
{ "type": "Feature", "properties": { "CODIGO_PLA": "02382", "NUMERO_PRE": "1", "NUMERO_EQU": "1", "IDENTIFICA": "", "SUELO": "Urbano", "CODIGO_EQU": "9-0008", "RUPI": "1224 87", "CODIGO_PI_": "", "NOMBRE": "PLAZA DE MERCADO SAN FRANCISCO", "DIRECCION": "KR 20 B 64 98 SUR", "TELEFONO": "", "SERVICIO_S": "9", "CHIP": "AAA0022MOZM", "CODIGO_UPZ": "66", "CODIGO_LOC": "19", "CODIGO_UPR": "0", "AREA_PREDI": "4.22223279932e+03", "AREA_CONST": "3.84130000000e+03", "HOMOLOGADO": "", "TIPO": "131", "ESCALA_POT": "3", "AREA_OCUPA": "0.00000000000e+00", "CARACTER": "PUBL", "FUNCION": "2", "ACTO_ADMIN": "DEC", "NUMERO_ACT": "555", "FECHA_ACTO": "29\/12\/2021", "NORMATIVA": "En el marco del Decreto 555 del 29 de diciembre de 2021 - Por el cual se adopta la revisión general del Plan de Ordenamiento Territorial de Bogotá", "OBSERVACIO": "", "ESCALA_CAP": "1000", "FECHA_CAPT": "29\/12\/2021", "RESPONSABL": "541", "SHAPE_Leng": "2.89999339929e+02", "SHAPE_Area": "4.22223279932e+03" }, "geometry": { "type": "Polygon", "coordinates": [ [ [ 92438.365899999625981, 96326.925699999555945 ], [ 92338.46129999961704, 96296.9671 ], [ 92326.914499999955297, 96335.472999999299645 ], [ 92427.404699999839067, 96365.914100000634789 ], [ 92438.365899999625981, 96326.925699999555945 ] ] ] } },
{ "type": "Feature", "properties": { "CODIGO_PLA": "04829", "NUMERO_PRE": "1", "NUMERO_EQU": "1", "IDENTIFICA": "", "SUELO": "Urbano", "CODIGO_EQU": "9-0036", "RUPI": "", "CODIGO_PI_": "", "NOMBRE": "PLAZA DE MERCADO SANTA LUCIA", "DIRECCION": "AC 44 SUR 19 5", "TELEFONO": "", "SERVICIO_S": "9", "CHIP": "AAA0013FXDM", "CODIGO_UPZ": "39", "CODIGO_LOC": "18", "CODIGO_UPR": "0", "AREA_PREDI": "1.36900000000e+02", "AREA_CONST": "2.85800000000e+02", "HOMOLOGADO": "", "TIPO": "131", "ESCALA_POT": "3", "AREA_OCUPA": "0.00000000000e+00", "CARACTER": "PRIV", "FUNCION": "2", "ACTO_ADMIN": "DEC", "NUMERO_ACT": "555", "FECHA_ACTO": "29\/12\/2021", "NORMATIVA": "En el marco del Decreto 555 del 29 de diciembre de 2021 - Por el cual se adopta la revisión general del Plan de Ordenamiento Territorial de Bogotá", "OBSERVACIO": "", "ESCALA_CAP": "1000", "FECHA_CAPT": "29\/12\/2021", "RESPONSABL": "541", "SHAPE_Leng": "4.64964440989e+01", "SHAPE_Area": "1.32992360110e+02" }, "geometry": { "type": "Polygon", "coordinates": [ [ [ 94872.442099999636412, 97652.379899999126792 ], [ 94864.738900000229478, 97647.348699999973178 ], [ 94858.512400000356138, 97653.755000000819564 ], [ 94856.528099999763072, 97655.825300000607967 ], [ 94867.551599999889731, 97663.442399999126792 ], [ 94872.442099999636412, 97652.379899999126792 ] ] ] } },
{ "type": "Feature", "properties": { "CODIGO_PLA": "00615", "NUMERO_PRE": "1", "NUMERO_EQU": "5", "IDENTIFICA": "", "SUELO": "Urbano", "CODIGO_EQU": "9-0010", "RUPI": "", "CODIGO_PI_": "", "NOMBRE": "PLAZA DE MERCADO BARRIO INGLES", "DIRECCION": "KR 26 A 41 10 SUR", "TELEFONO": "", "SERVICIO_S": "9", "CHIP": "AAA0013ZZJH", "CODIGO_UPZ": "39", "CODIGO_LOC": "18", "CODIGO_UPR": "0", "AREA_PREDI": "4.15823088500e+03", "AREA_CONST": "1.92287177000e+03", "HOMOLOGADO": "", "TIPO": "131", "ESCALA_POT": "3", "AREA_OCUPA": "0.00000000000e+00", "CARACTER": "PRIV", "FUNCION": "2", "ACTO_ADMIN": "DEC", "NUMERO_ACT": "555", "FECHA_ACTO": "29\/12\/2021", "NORMATIVA": "En el marco del Decreto 555 del 29 de diciembre de 2021 - Por el cual se adopta la revisión general del Plan de Ordenamiento Territorial de Bogotá", "OBSERVACIO": "", "ESCALA_CAP": "1000", "FECHA_CAPT": "29\/12\/2021", "RESPONSABL": "541", "SHAPE_Leng": "2.90619043230e+02", "SHAPE_Area": "4.72137683818e+03" }, "geometry": { "type": "Polygon", "coordinates": [ [ [ 94889.149600000120699, 98516.191999999806285 ], [ 94811.264200000092387, 98493.934399999678135 ], [ 94812.590300000272691, 98497.710899999365211 ], [ 94814.571700000204146, 98503.367799999192357 ], [ 94823.286600000225008, 98528.203600000590086 ], [ 94834.503700000233948, 98560.17879999987781 ], [ 94836.256199999712408, 98565.180299999192357 ], [ 94836.619300000369549, 98566.218000000342727 ], [ 94853.388700000010431, 98571.555900000035763 ], [ 94862.82149999961257, 98574.560799999162555 ], [ 94869.399400000460446, 98576.65430000051856 ], [ 94877.596300000324845, 98579.265300000086427 ], [ 94883.978699999861419, 98581.296900000423193 ], [ 94907.418600000441074, 98521.407199999317527 ], [ 94905.174100000411272, 98520.766899999231 ], [ 94905.009800000116229, 98520.720599999651313 ], [ 94904.845599999651313, 98520.674300000071526 ], [ 94904.681400000117719, 98520.628100000321865 ], [ 94904.509300000034273, 98520.581800000742078 ], [ 94904.345099999569356, 98520.535499999299645 ], [ 94904.173100000247359, 98520.489299999549985 ], [ 94898.495299999602139, 98518.869200000539422 ], [ 94893.591799999587238, 98517.464999999850988 ], [ 94889.149600000120699, 98516.191999999806285 ] ] ] } },
{ "type": "Feature", "properties": { "CODIGO_PLA": "04828", "NUMERO_PRE": "1", "NUMERO_EQU": "1", "IDENTIFICA": "", "SUELO": "Urbano", "CODIGO_EQU": "9-0035", "RUPI": "", "CODIGO_PI_": "", "NOMBRE": "PLAZA DE MERCADO SAN CRISTOBAL NORTE", "DIRECCION": "KR 6 B 163 A 4", "TELEFONO": "", "SERVICIO_S": "9", "CHIP": "AAA0108LHTD", "CODIGO_UPZ": "11", "CODIGO_LOC": "1", "CODIGO_UPR": "0", "AREA_PREDI": "2.57017784235e+03", "AREA_CONST": "5.39960000000e+02", "HOMOLOGADO": "", "TIPO": "131", "ESCALA_POT": "3", "AREA_OCUPA": "0.00000000000e+00", "CARACTER": "PRIV", "FUNCION": "2", "ACTO_ADMIN": "DEC", "NUMERO_ACT": "555", "FECHA_ACTO": "29\/12\/2021", "NORMATIVA": "En el marco del Decreto 555 del 29 de diciembre de 2021 - Por el cual se adopta la revisión general del Plan de Ordenamiento Territorial de Bogotá", "OBSERVACIO": "", "ESCALA_CAP": "1000", "FECHA_CAPT": "29\/12\/2021", "RESPONSABL": "541", "SHAPE_Leng": "2.65011839293e+02", "SHAPE_Area": "2.57017784235e+03" }, "geometry": { "type": "Polygon", "coordinates": [ [ [ 106133.369300000369549, 115688.529899999499321 ], [ 106144.818, 115687.8684 ], [ 106144.67920000012964, 115688.239800000563264 ], [ 106168.774000000208616, 115675.056299999356 ], [ 106203.909599999897182, 115660.602399999275804 ], [ 106203.231200000271201, 115654.842299999669194 ], [ 106197.219200000166893, 115631.607499999925 ], [ 106176.889299999923, 115642.363500000908971 ], [ 106134.401200000196695, 115662.456900000572205 ], [ 106097.1458, 115690.115399999544024 ], [ 106098.548399999738, 115695.852700000628829 ], [ 106130.309299999848008, 115689.249900000169873 ], [ 106133.369300000369549, 115688.529899999499321 ] ] ] } },
{ "type": "Feature", "properties": { "CODIGO_PLA": "01777", "NUMERO_PRE": "1", "NUMERO_EQU": "1", "IDENTIFICA": "", "SUELO": "Urbano", "CODIGO_EQU": "9-0031", "RUPI": "95019 1", "CODIGO_PI_": "", "NOMBRE": "PLAZA DE MERCADO BARRIO ISMAEL PERDOMO", "DIRECCION": "CL 63 SUR 71 F 70", "TELEFONO": "", "SERVICIO_S": "9", "CHIP": "AAA0017CYZM", "CODIGO_UPZ": "69", "CODIGO_LOC": "19", "CODIGO_UPR": "0", "AREA_PREDI": "3.87800000000e+02", "AREA_CONST": "7.83200000000e+02", "HOMOLOGADO": "", "TIPO": "131", "ESCALA_POT": "3", "AREA_OCUPA": "0.00000000000e+00", "CARACTER": "PRIV", "FUNCION": "2", "ACTO_ADMIN": "DEC", "NUMERO_ACT": "555", "FECHA_ACTO": "29\/12\/2021", "NORMATIVA": "En el marco del Decreto 555 del 29 de diciembre de 2021 - Por el cual se adopta la revisión general del Plan de Ordenamiento Territorial de Bogotá", "OBSERVACIO": "", "ESCALA_CAP": "1000", "FECHA_CAPT": "29\/12\/2021", "RESPONSABL": "541", "SHAPE_Leng": "9.71963986269e+01", "SHAPE_Area": "3.87297781479e+02" }, "geometry": { "type": "Polygon", "coordinates": [ [ [ 90187.503499999642372, 99110.031300000846386 ], [ 90177.883500000461936, 99107.301300000399351 ], [ 90166.533800000324845, 99144.091399999335408 ], [ 90174.253800000064075, 99146.351299999281764 ], [ 90175.073800000362098, 99146.591299999505281 ], [ 90176.223799999803305, 99146.941299999132752 ], [ 90187.503499999642372, 99110.031300000846386 ] ] ] } },
{ "type": "Feature", "properties": { "CODIGO_PLA": "05126", "NUMERO_PRE": "1", "NUMERO_EQU": "1", "IDENTIFICA": "", "SUELO": "Urbano", "CODIGO_EQU": "9-0040", "RUPI": "", "CODIGO_PI_": "", "NOMBRE": "PLAZA DE MERCADO USAQUEN", "DIRECCION": "CL 121 6 85", "TELEFONO": "", "SERVICIO_S": "9", "CHIP": "AAA0101SDTD", "CODIGO_UPZ": "14", "CODIGO_LOC": "1", "CODIGO_UPR": "0", "AREA_PREDI": "1.01660000000e+03", "AREA_CONST": "1.01660000000e+03", "HOMOLOGADO": "", "TIPO": "131", "ESCALA_POT": "3", "AREA_OCUPA": "0.00000000000e+00", "CARACTER": "PRIV", "FUNCION": "2", "ACTO_ADMIN": "DEC", "NUMERO_ACT": "555", "FECHA_ACTO": "29\/12\/2021", "NORMATIVA": "En el marco del Decreto 555 del 29 de diciembre de 2021 - Por el cual se adopta la revisión general del Plan de Ordenamiento Territorial de Bogotá", "OBSERVACIO": "", "ESCALA_CAP": "1000", "FECHA_CAPT": "29\/12\/2021", "RESPONSABL": "541", "SHAPE_Leng": "1.32113709636e+02", "SHAPE_Area": "1.01684089658e+03" }, "geometry": { "type": "Polygon", "coordinates": [ [ [ 105251.961500000208616, 111218.667700000107288 ], [ 105232.086299999617, 111188.042999999597669 ], [ 105231.406600000336766, 111188.222699999809265 ], [ 105221.555100000463426, 111190.871200000867248 ], [ 105212.469200000166893, 111193.316600000485778 ], [ 105209.391099999658763, 111194.152599999681115 ], [ 105219.3366, 111214.332100000232458 ], [ 105221.321000000461936, 111218.363299999386072 ], [ 105223.750699999742, 111223.308599999174476 ], [ 105229.039900000207126, 111234.066299999132752 ], [ 105251.961500000208616, 111218.667700000107288 ] ] ] } },
{ "type": "Feature", "properties": { "CODIGO_PLA": "05127", "NUMERO_PRE": "1", "NUMERO_EQU": "1", "IDENTIFICA": "", "SUELO": "Urbano", "CODIGO_EQU": "9-0041", "RUPI": "", "CODIGO_PI_": "", "NOMBRE": "PLAZA DE MERCADO RUMICHACA", "DIRECCION": "KR 3 ESTE 7 20", "TELEFONO": "", "SERVICIO_S": "9", "CHIP": "AAA0209ZDSY", "CODIGO_UPZ": "94", "CODIGO_LOC": "17", "CODIGO_UPR": "0", "AREA_PREDI": "1.07634000000e+03", "AREA_CONST": "4.12300000000e+02", "HOMOLOGADO": "", "TIPO": "131", "ESCALA_POT": "3", "AREA_OCUPA": "0.00000000000e+00", "CARACTER": "PRIV", "FUNCION": "2", "ACTO_ADMIN": "DEC", "NUMERO_ACT": "555", "FECHA_ACTO": "29\/12\/2021", "NORMATIVA": "En el marco del Decreto 555 del 29 de diciembre de 2021 - Por el cual se adopta la revisión general del Plan de Ordenamiento Territorial de Bogotá", "OBSERVACIO": "", "ESCALA_CAP": "1000", "FECHA_CAPT": "29\/12\/2021", "RESPONSABL": "541", "SHAPE_Leng": "3.48338239343e+02", "SHAPE_Area": "1.55465484755e+03" }, "geometry": { "type": "Polygon", "coordinates": [ [ [ 100852.833100000396371, 99426.754599999636412 ], [ 100853.382299999706447, 99425.613700000569224 ], [ 100842.121799999848008, 99432.161499999463558 ], [ 100843.463399999774992, 99434.358500000089407 ], [ 100842.716799999587238, 99432.430900000035763 ], [ 100852.833100000396371, 99426.754599999636412 ] ] ] } },
{ "type": "Feature", "properties": { "CODIGO_PLA": "05127", "NUMERO_PRE": "1", "NUMERO_EQU": "1", "IDENTIFICA": "", "SUELO": "Urbano", "CODIGO_EQU": "9-0041", "RUPI": "", "CODIGO_PI_": "", "NOMBRE": "PLAZA DE MERCADO RUMICHACA", "DIRECCION": "KR 3 ESTE 7 20", "TELEFONO": "", "SERVICIO_S": "9", "CHIP": "AAA0209ZDSY", "CODIGO_UPZ": "94", "CODIGO_LOC": "17", "CODIGO_UPR": "0", "AREA_PREDI": "1.07634000000e+03", "AREA_CONST": "4.12300000000e+02", "HOMOLOGADO": "", "TIPO": "131", "ESCALA_POT": "3", "AREA_OCUPA": "0.00000000000e+00", "CARACTER": "PRIV", "FUNCION": "2", "ACTO_ADMIN": "DEC", "NUMERO_ACT": "555", "FECHA_ACTO": "29\/12\/2021", "NORMATIVA": "En el marco del Decreto 555 del 29 de diciembre de 2021 - Por el cual se adopta la revisión general del Plan de Ordenamiento Territorial de Bogotá", "OBSERVACIO": "", "ESCALA_CAP": "1000", "FECHA_CAPT": "29\/12\/2021", "RESPONSABL": "541", "SHAPE_Leng": "3.48338239343e+02", "SHAPE_Area": "1.55465484755e+03" }, "geometry": { "type": "Polygon", "coordinates": [ [ [ 100849.9221, 99410.52449999935925 ], [ 100842.177099999972, 99397.81220000050962 ], [ 100815.729600000195205, 99413.302200000733137 ], [ 100818.243200000375509, 99421.017400000244379 ], [ 100815.528800000436604, 99422.926000000908971 ], [ 100815.794200000353158, 99423.354699999094009 ], [ 100812.90500000026077, 99425.330199999734759 ], [ 100810.051599999889731, 99431.722200000658631 ], [ 100807.9106, 99433.013100000098348 ], [ 100808.218500000424683, 99433.528100000694394 ], [ 100807.944799999706447, 99435.024000000208616 ], [ 100811.6513, 99430.741200000047684 ], [ 100819.785400000400841, 99422.865399999544024 ], [ 100825.352199999616, 99420.71169999986887 ], [ 100842.767300000414252, 99413.182000000029802 ], [ 100849.9221, 99410.52449999935925 ] ] ] } },
{ "type": "Feature", "properties": { "CODIGO_PLA": "05127", "NUMERO_PRE": "1", "NUMERO_EQU": "1", "IDENTIFICA": "", "SUELO": "Urbano", "CODIGO_EQU": "9-0041", "RUPI": "", "CODIGO_PI_": "", "NOMBRE": "PLAZA DE MERCADO RUMICHACA", "DIRECCION": "KR 3 ESTE 7 20", "TELEFONO": "", "SERVICIO_S": "9", "CHIP": "AAA0209ZDSY", "CODIGO_UPZ": "94", "CODIGO_LOC": "17", "CODIGO_UPR": "0", "AREA_PREDI": "1.07634000000e+03", "AREA_CONST": "4.12300000000e+02", "HOMOLOGADO": "", "TIPO": "131", "ESCALA_POT": "3", "AREA_OCUPA": "0.00000000000e+00", "CARACTER": "PRIV", "FUNCION": "2", "ACTO_ADMIN": "DEC", "NUMERO_ACT": "555", "FECHA_ACTO": "29\/12\/2021", "NORMATIVA": "En el marco del Decreto 555 del 29 de diciembre de 2021 - Por el cual se adopta la revisión general del Plan de Ordenamiento Territorial de Bogotá", "OBSERVACIO": "", "ESCALA_CAP": "1000", "FECHA_CAPT": "29\/12\/2021", "RESPONSABL": "541", "SHAPE_Leng": "3.48338239343e+02", "SHAPE_Area": "1.55465484755e+03" }, "geometry": { "type": "Polygon", "coordinates": [ [ [ 100841.364599999972, 99437.357400000095367 ], [ 100842.722400000318885, 99436.494500000029802 ], [ 100841.0888, 99437.454900000244379 ], [ 100842.767300000414252, 99441.328199999406934 ], [ 100835.057199999690056, 99453.637299999594688 ], [ 100838.067300000227988, 99449.899599999189377 ], [ 100843.722900000400841, 99441.652499999850988 ], [ 100841.364599999972, 99437.357400000095367 ] ] ] } },
{ "type": "Feature", "properties": { "CODIGO_PLA": "05127", "NUMERO_PRE": "1", "NUMERO_EQU": "1", "IDENTIFICA": "", "SUELO": "Urbano", "CODIGO_EQU": "9-0041", "RUPI": "", "CODIGO_PI_": "", "NOMBRE": "PLAZA DE MERCADO RUMICHACA", "DIRECCION": "KR 3 ESTE 7 20", "TELEFONO": "", "SERVICIO_S": "9", "CHIP": "AAA0209ZDSY", "CODIGO_UPZ": "94", "CODIGO_LOC": "17", "CODIGO_UPR": "0", "AREA_PREDI": "1.07634000000e+03", "AREA_CONST": "4.12300000000e+02", "HOMOLOGADO": "", "TIPO": "131", "ESCALA_POT": "3", "AREA_OCUPA": "0.00000000000e+00", "CARACTER": "PRIV", "FUNCION": "2", "ACTO_ADMIN": "DEC", "NUMERO_ACT": "555", "FECHA_ACTO": "29\/12\/2021", "NORMATIVA": "En el marco del Decreto 555 del 29 de diciembre de 2021 - Por el cual se adopta la revisión general del Plan de Ordenamiento Territorial de Bogotá", "OBSERVACIO": "", "ESCALA_CAP": "1000", "FECHA_CAPT": "29\/12\/2021", "RESPONSABL": "541", "SHAPE_Leng": "3.48338239343e+02", "SHAPE_Area": "1.55465484755e+03" }, "geometry": { "type": "Polygon", "coordinates": [ [ [ 100823.995500000193715, 99468.729299999773502 ], [ 100825.208100000396371, 99462.115299999713898 ], [ 100803.743099999614, 99440.910700000822544 ], [ 100803.351599999703467, 99441.367000000551343 ], [ 100800.011800000444055, 99443.380799999460578 ], [ 100799.755199999548495, 99442.951700000092387 ], [ 100797.9846, 99445.373500000685453 ], [ 100797.286999999545515, 99444.656999999657273 ], [ 100796.015700000338256, 99452.04839999973774 ], [ 100793.3947, 99454.368000000715256 ], [ 100789.275999999605119, 99458.013100000098348 ], [ 100788.894100000150502, 99457.424100000411272 ], [ 100784.043600000441074, 99460.348899999633431 ], [ 100784.910699999891222, 99461.681900000199676 ], [ 100779.342799999751151, 99464.77449999935925 ], [ 100774.174700000323355, 99470.739199999719858 ], [ 100778.222500000149012, 99474.609099999070168 ], [ 100783.903, 99468.557499999180436 ], [ 100784.987599999643862, 99469.593699999153614 ], [ 100786.041000000201166, 99468.525800000876188 ], [ 100804.536600000225008, 99486.513199999928474 ], [ 100805.736899999902, 99485.455199999734759 ], [ 100815.417299999855459, 99476.928899999707937 ], [ 100819.542000000365078, 99473.290599999949336 ], [ 100823.479600000195205, 99469.450699999928474 ], [ 100823.995500000193715, 99468.729299999773502 ] ] ] } },
{ "type": "Feature", "properties": { "CODIGO_PLA": "04768", "NUMERO_PRE": "1", "NUMERO_EQU": "1", "IDENTIFICA": "", "SUELO": "Urbano", "CODIGO_EQU": "9-0030", "RUPI": "", "CODIGO_PI_": "", "NOMBRE": "PLAZA DE MERCADO BOSA CENTRO", "DIRECCION": "CL 63 SUR 80 A 18", "TELEFONO": "", "SERVICIO_S": "9", "CHIP": "AAA0045YAUH", "CODIGO_UPZ": "85", "CODIGO_LOC": "7", "CODIGO_UPR": "0", "AREA_PREDI": "1.75687130417e+03", "AREA_CONST": "1.63947000000e+03", "HOMOLOGADO": "", "TIPO": "131", "ESCALA_POT": "3", "AREA_OCUPA": "0.00000000000e+00", "CARACTER": "PRIV", "FUNCION": "2", "ACTO_ADMIN": "DEC", "NUMERO_ACT": "555", "FECHA_ACTO": "29\/12\/2021", "NORMATIVA": "En el marco del Decreto 555 del 29 de diciembre de 2021 - Por el cual se adopta la revisión general del Plan de Ordenamiento Territorial de Bogotá", "OBSERVACIO": "", "ESCALA_CAP": "1000", "FECHA_CAPT": "29\/12\/2021", "RESPONSABL": "541", "SHAPE_Leng": "1.95702724751e+02", "SHAPE_Area": "1.75687130417e+03" }, "geometry": { "type": "Polygon", "coordinates": [ [ [ 88247.287499999627471, 101345.691500000655651 ], [ 88186.703900000080466, 101306.051100000739098 ], [ 88174.543600000441074, 101324.981899999082088 ], [ 88236.269700000062585, 101368.464999999850988 ], [ 88247.287499999627471, 101345.691500000655651 ] ] ] } },
{ "type": "Feature", "properties": { "CODIGO_PLA": "03964", "NUMERO_PRE": "1", "NUMERO_EQU": "1", "IDENTIFICA": "", "SUELO": "Urbano", "CODIGO_EQU": "9-0025", "RUPI": "", "CODIGO_PI_": "", "NOMBRE": "PLAZA DE MERCADO CENTRO DE ABASTOS DEL NORTE - CODABAS", "DIRECCION": "KR 7 C 180 31", "TELEFONO": "", "SERVICIO_S": "9", "CHIP": "AAA0115TMJH", "CODIGO_UPZ": "9", "CODIGO_LOC": "1", "CODIGO_UPR": "0", "AREA_PREDI": "2.27053744039e+03", "AREA_CONST": "2.44650000000e+03", "HOMOLOGADO": "", "TIPO": "131", "ESCALA_POT": "2", "AREA_OCUPA": "0.00000000000e+00", "CARACTER": "PRIV", "FUNCION": "2", "ACTO_ADMIN": "DEC", "NUMERO_ACT": "555", "FECHA_ACTO": "29\/12\/2021", "NORMATIVA": "En el marco del Decreto 555 del 29 de diciembre de 2021 - Por el cual se adopta la revisión general del Plan de Ordenamiento Territorial de Bogotá", "OBSERVACIO": "", "ESCALA_CAP": "1000", "FECHA_CAPT": "29\/12\/2021", "RESPONSABL": "541", "SHAPE_Leng": "3.18688180166e+02", "SHAPE_Area": "2.08135206531e+03" }, "geometry": { "type": "Polygon", "coordinates": [ [ [ 105559.434899999760091, 117709.535399999469519 ], [ 105580.8651, 117707.374800000339746 ], [ 105559.766800000332296, 117709.011399999260902 ], [ 105559.665300000458956, 117709.011399999260902 ], [ 105559.434899999760091, 117709.535399999469519 ] ] ] } },
{ "type": "Feature", "properties": { "CODIGO_PLA": "03964", "NUMERO_PRE": "1", "NUMERO_EQU": "1", "IDENTIFICA": "", "SUELO": "Urbano", "CODIGO_EQU": "9-0025", "RUPI": "", "CODIGO_PI_": "", "NOMBRE": "PLAZA DE MERCADO CENTRO DE ABASTOS DEL NORTE - CODABAS", "DIRECCION": "KR 7 C 180 31", "TELEFONO": "", "SERVICIO_S": "9", "CHIP": "AAA0115TMJH", "CODIGO_UPZ": "9", "CODIGO_LOC": "1", "CODIGO_UPR": "0", "AREA_PREDI": "2.27053744039e+03", "AREA_CONST": "2.44650000000e+03", "HOMOLOGADO": "", "TIPO": "131", "ESCALA_POT": "2", "AREA_OCUPA": "0.00000000000e+00", "CARACTER": "PRIV", "FUNCION": "2", "ACTO_ADMIN": "DEC", "NUMERO_ACT": "555", "FECHA_ACTO": "29\/12\/2021", "NORMATIVA": "En el marco del Decreto 555 del 29 de diciembre de 2021 - Por el cual se adopta la revisión general del Plan de Ordenamiento Territorial de Bogotá", "OBSERVACIO": "", "ESCALA_CAP": "1000", "FECHA_CAPT": "29\/12\/2021", "RESPONSABL": "541", "SHAPE_Leng": "3.18688180166e+02", "SHAPE_Area": "2.08135206531e+03" }, "geometry": { "type": "Polygon", "coordinates": [ [ [ 105534.471099999733269, 117815.175499999895692 ], [ 105582.298000000417233, 117707.261199999600649 ], [ 105581.423000000417233, 117707.331499999389052 ], [ 105581.393799999728799, 117707.333799999207258 ], [ 105577.363099999725819, 117718.341900000348687 ], [ 105557.144199999981, 117715.289699999616 ], [ 105519.552799999713898, 117800.233300000429153 ], [ 105515.004200000315905, 117810.577500000596046 ], [ 105534.446499999613, 117815.164899999275804 ], [ 105534.4446, 117815.169199999421835 ], [ 105534.471099999733269, 117815.175499999895692 ] ] ] } },
{ "type": "Feature", "properties": { "CODIGO_PLA": "00818", "NUMERO_PRE": "1", "NUMERO_EQU": "2", "IDENTIFICA": "A-115", "SUELO": "Urbano", "CODIGO_EQU": "9-0017", "RUPI": "1 4097", "CODIGO_PI_": "A-115", "NOMBRE": "PLAZA DE MERCADO CARLOS E. RESTREPO", "DIRECCION": "KR 19 18 43 SUR", "TELEFONO": "", "SERVICIO_S": "9", "CHIP": "AAA0012DBFZ", "CODIGO_UPZ": "38", "CODIGO_LOC": "15", "CODIGO_UPR": "0", "AREA_PREDI": "8.90120000000e+03", "AREA_CONST": "1.18423000000e+04", "HOMOLOGADO": "", "TIPO": "131", "ESCALA_POT": "2", "AREA_OCUPA": "0.00000000000e+00", "CARACTER": "PUBL", "FUNCION": "2", "ACTO_ADMIN": "DEC", "NUMERO_ACT": "555", "FECHA_ACTO": "29\/12\/2021", "NORMATIVA": "En el marco del Decreto 555 del 29 de diciembre de 2021 - Por el cual se adopta la revisión general del Plan de Ordenamiento Territorial de Bogotá", "OBSERVACIO": "", "ESCALA_CAP": "1000", "FECHA_CAPT": "29\/12\/2021", "RESPONSABL": "541", "SHAPE_Leng": "4.25946365794e+02", "SHAPE_Area": "8.90124926906e+03" }, "geometry": { "type": "Polygon", "coordinates": [ [ [ 97188.667799999937415, 98716.2804000005126 ], [ 97132.753800000064075, 98714.14809999987483 ], [ 97131.472799999639392, 98740.46059999987483 ], [ 97244.231399999931455, 98847.638900000602007 ], [ 97283.723100000061095, 98806.529200000688434 ], [ 97205.324099999852479, 98732.092700000852346 ], [ 97188.667799999937415, 98716.2804000005126 ] ] ] } },
{ "type": "Feature", "properties": { "CODIGO_PLA": "00721", "NUMERO_PRE": "1", "NUMERO_EQU": "3", "IDENTIFICA": "A-151", "SUELO": "Urbano", "CODIGO_EQU": "9-0011", "RUPI": "1 4094", "CODIGO_PI_": "A-151", "NOMBRE": "PLAZA DE MERCADO 12 DE OCTUBRE", "DIRECCION": "CL 73 51 27", "TELEFONO": "250 97 56 - 647 21 82", "SERVICIO_S": "9", "CHIP": "AAA0056LCOE", "CODIGO_UPZ": "22", "CODIGO_LOC": "12", "CODIGO_UPR": "0", "AREA_PREDI": "4.60470000000e+03", "AREA_CONST": "4.60230000000e+03", "HOMOLOGADO": "", "TIPO": "131", "ESCALA_POT": "2", "AREA_OCUPA": "0.00000000000e+00", "CARACTER": "PUBL", "FUNCION": "2", "ACTO_ADMIN": "DEC", "NUMERO_ACT": "555", "FECHA_ACTO": "29\/12\/2021", "NORMATIVA": "En el marco del Decreto 555 del 29 de diciembre de 2021 - Por el cual se adopta la revisión general del Plan de Ordenamiento Territorial de Bogotá", "OBSERVACIO": "", "ESCALA_CAP": "1000", "FECHA_CAPT": "29\/12\/2021", "RESPONSABL": "541", "SHAPE_Leng": "2.70462820857e+02", "SHAPE_Area": "4.55395443458e+03" }, "geometry": { "type": "Polygon", "coordinates": [ [ [ 100392.993599999696016, 108071.029699999839067 ], [ 100346.505099999718368, 108016.705700000748038 ], [ 100295.735000000335276, 108056.487999999895692 ], [ 100341.700199999846518, 108109.633600000292063 ], [ 100392.993599999696016, 108071.029699999839067 ] ] ] } },
{ "type": "Feature", "properties": { "CODIGO_PLA": "00358", "NUMERO_PRE": "1", "NUMERO_EQU": "1", "IDENTIFICA": "A-152", "SUELO": "Urbano", "CODIGO_EQU": "9-0005", "RUPI": "1 4091", "CODIGO_PI_": "A-152", "NOMBRE": "PLAZA DE MERCADO EL CARMEN", "DIRECCION": "DG 49 A SUR 29 15", "TELEFONO": "", "SERVICIO_S": "9", "CHIP": "AAA0016ELZM", "CODIGO_UPZ": "42", "CODIGO_LOC": "6", "CODIGO_UPR": "0", "AREA_PREDI": "1.29600000000e+03", "AREA_CONST": "1.21900000000e+03", "HOMOLOGADO": "", "TIPO": "131", "ESCALA_POT": "3", "AREA_OCUPA": "0.00000000000e+00", "CARACTER": "PUBL", "FUNCION": "2", "ACTO_ADMIN": "DEC", "NUMERO_ACT": "555", "FECHA_ACTO": "29\/12\/2021", "NORMATIVA": "En el marco del Decreto 555 del 29 de diciembre de 2021 - Por el cual se adopta la revisión general del Plan de Ordenamiento Territorial de Bogotá", "OBSERVACIO": "", "ESCALA_CAP": "1000", "FECHA_CAPT": "29\/12\/2021", "RESPONSABL": "541", "SHAPE_Leng": "1.44844198294e+02", "SHAPE_Area": "1.29430368711e+03" }, "geometry": { "type": "Polygon", "coordinates": [ [ [ 93583.078599999658763, 98475.48200000077486 ], [ 93551.974899999797344, 98450.331499999389052 ], [ 93530.50789999961853, 98474.732599999755621 ], [ 93546.176300000399351, 98487.198799999430776 ], [ 93561.770499999634922, 98499.75650000013411 ], [ 93583.078599999658763, 98475.48200000077486 ] ] ] } },
{ "type": "Feature", "properties": { "CODIGO_PLA": "00361", "NUMERO_PRE": "1", "NUMERO_EQU": "1", "IDENTIFICA": "A-117", "SUELO": "Urbano", "CODIGO_EQU": "9-0006", "RUPI": "1 4106", "CODIGO_PI_": "A-117", "NOMBRE": "PLAZA DE MERCADO LAS CRUCES", "DIRECCION": "KR 5 1 F 94", "TELEFONO": "289 94 50", "SERVICIO_S": "9", "CHIP": "AAA0032XYYX", "CODIGO_UPZ": "95", "CODIGO_LOC": "3", "CODIGO_UPR": "0", "AREA_PREDI": "2.24287000000e+03", "AREA_CONST": "1.85000000000e+03", "HOMOLOGADO": "", "TIPO": "131", "ESCALA_POT": "2", "AREA_OCUPA": "0.00000000000e+00", "CARACTER": "PUBL", "FUNCION": "2", "ACTO_ADMIN": "DEC", "NUMERO_ACT": "555", "FECHA_ACTO": "29\/12\/2021", "NORMATIVA": "En el marco del Decreto 555 del 29 de diciembre de 2021 - Por el cual se adopta la revisión general del Plan de Ordenamiento Territorial de Bogotá", "OBSERVACIO": "", "ESCALA_CAP": "1000", "FECHA_CAPT": "29\/12\/2021", "RESPONSABL": "541", "SHAPE_Leng": "1.83009319819e+02", "SHAPE_Area": "2.24315801325e+03" }, "geometry": { "type": "Polygon", "coordinates": [ [ [ 99943.121199999935925, 99006.72719999961555 ], [ 99942.911199999973178, 99006.68720000050962 ], [ 99906.611399999819696, 99017.4375 ], [ 99906.401399999856949, 99017.487500000745058 ], [ 99906.251400000415742, 99017.537499999627471 ], [ 99906.101400000043213, 99017.577500000596046 ], [ 99905.961400000378489, 99017.64750000089407 ], [ 99905.8114, 99017.707499999552965 ], [ 99905.671400000341237, 99017.767500000074506 ], [ 99905.541400000452995, 99017.837500000372529 ], [ 99905.401399999856949, 99017.917500000447035 ], [ 99905.261400000192225, 99017.997500000521541 ], [ 99905.141400000080466, 99018.077500000596046 ], [ 99905.011400000192225, 99018.177500000223517 ], [ 99904.881400000303984, 99018.267500000074506 ], [ 99904.761400000192225, 99018.367499999701977 ], [ 99904.651399999856949, 99018.47749999910593 ], [ 99904.541400000452995, 99018.577500000596046 ], [ 99904.431400000117719, 99018.6875 ], [ 99904.321399999782443, 99018.797499999403954 ], [ 99904.221400000154972, 99018.927500000223517 ], [ 99904.121399999596179, 99019.047499999403954 ], [ 99904.03139999974519, 99019.167500000447035 ], [ 99903.941399999894202, 99019.297499999403954 ], [ 99903.861399999819696, 99019.427500000223517 ], [ 99903.78139999974519, 99019.557499999180436 ], [ 99903.701399999670684, 99019.697499999776483 ], [ 99903.631400000303984, 99019.837500000372529 ], [ 99903.571399999782443, 99019.97749999910593 ], [ 99903.511400000192225, 99020.117499999701977 ], [ 99903.451399999670684, 99020.267500000074506 ], [ 99903.401399999856949, 99020.417500000447035 ], [ 99903.361399999819696, 99020.567500000819564 ], [ 99903.321399999782443, 99020.717499999329448 ], [ 99903.291400000452995, 99020.867499999701977 ], [ 99903.261400000192225, 99021.017500000074506 ], [ 99903.231399999931455, 99021.177500000223517 ], [ 99903.221400000154972, 99021.327500000596046 ], [ 99903.201500000432134, 99021.487500000745058 ], [ 99903.191499999724329, 99021.64750000089407 ], [ 99903.191499999724329, 99021.797499999403954 ], [ 99903.191499999724329, 99021.947499999776483 ], [ 99915.251799999736249, 99062.707299999892712 ], [ 99915.361800000071526, 99062.867300000041723 ], [ 99915.461799999698997, 99063.00730000063777 ], [ 99915.571800000034273, 99063.147299999371171 ], [ 99915.681800000369549, 99063.277300000190735 ], [ 99915.801799999549985, 99063.407299999147654 ], [ 99915.921799999661744, 99063.537299999967217 ], [ 99916.051799999549985, 99063.647299999371171 ], [ 99916.171799999661744, 99063.767300000414252 ], [ 99916.301799999549985, 99063.877299999818206 ], [ 99916.441800000146031, 99063.977299999445677 ], [ 99916.581799999810755, 99064.077299999073148 ], [ 99916.721800000406802, 99064.187300000339746 ], [ 99916.871799999848008, 99064.267300000414252 ], [ 99917.021800000220537, 99064.357300000265241 ], [ 99917.171799999661744, 99064.437300000339746 ], [ 99917.331799999810755, 99064.50730000063777 ], [ 99917.491799999959767, 99064.577299999073148 ], [ 99917.651800000108778, 99064.647299999371171 ], [ 99917.81180000025779, 99064.707299999892712 ], [ 99917.971800000406802, 99064.75730000063777 ], [ 99918.141800000332296, 99064.807199999690056 ], [ 99918.31180000025779, 99064.847200000658631 ], [ 99918.471800000406802, 99064.887199999764562 ], [ 99918.651800000108778, 99064.917199999094009 ], [ 99918.821800000034273, 99064.93720000050962 ], [ 99918.991799999959767, 99064.957200000062585 ], [ 99919.161799999885261, 99064.967199999839067 ], [ 99919.331799999810755, 99064.97719999961555 ], [ 99919.511800000444055, 99064.97719999961555 ], [ 99919.691800000146031, 99064.967199999839067 ], [ 99919.861800000071526, 99064.957200000062585 ], [ 99920.0318, 99064.93720000050962 ], [ 99920.201799999922514, 99064.907199999317527 ], [ 99920.371799999848008, 99064.877199999988079 ], [ 99920.541799999773502, 99064.847200000658631 ], [ 99956.871600000187755, 99054.096899999305606 ], [ 99956.971599999815226, 99054.03690000064671 ], [ 99957.14159999974072, 99053.926899999380112 ], [ 99957.301599999889731, 99053.816899999976158 ], [ 99957.461600000038743, 99053.696900000795722 ], [ 99957.611600000411272, 99053.576899999752641 ], [ 99957.761599999852479, 99053.436899999156594 ], [ 99957.901600000448525, 99053.306900000199676 ], [ 99958.041600000113249, 99053.166899999603629 ], [ 99958.1716, 99053.026900000870228 ], [ 99958.301599999889731, 99052.876900000497699 ], [ 99958.431599999777973, 99052.72690000012517 ], [ 99958.551599999889731, 99052.566899999976158 ], [ 99958.651600000448525, 99052.396900000050664 ], [ 99958.761599999852479, 99052.236899999901652 ], [ 99958.871600000187755, 99052.066899999976158 ], [ 99958.961600000038743, 99051.896900000050664 ], [ 99959.051599999889731, 99051.72690000012517 ], [ 99959.131599999964237, 99051.546900000423193 ], [ 99959.20160000026226, 99051.366900000721216 ], [ 99959.271599999628961, 99051.176899999380112 ], [ 99959.341599999926984, 99050.996899999678135 ], [ 99959.401600000448525, 99050.796900000423193 ], [ 99947.431200000457466, 99010.337099999189377 ], [ 99947.331199999898672, 99010.11710000038147 ], [ 99947.261199999600649, 99009.92710000090301 ], [ 99947.161199999973178, 99009.747099999338388 ], [ 99947.07120000012219, 99009.577099999412894 ], [ 99946.971199999563396, 99009.397099999710917 ], [ 99946.861200000159442, 99009.227099999785423 ], [ 99946.751199999824166, 99009.057099999859929 ], [ 99946.631199999712408, 99008.897099999710917 ], [ 99946.511199999600649, 99008.737099999561906 ], [ 99946.371199999935925, 99008.587099999189377 ], [ 99946.241200000047684, 99008.437100000679493 ], [ 99946.10120000038296, 99008.297100000083447 ], [ 99945.951200000010431, 99008.147099999710917 ], [ 99945.801199999637902, 99008.017100000753999 ], [ 99945.651200000196695, 99007.897099999710917 ], [ 99945.491200000047684, 99007.767100000753999 ], [ 99945.331199999898672, 99007.647099999710917 ], [ 99945.151200000196695, 99007.547100000083447 ], [ 99944.981200000271201, 99007.437100000679493 ], [ 99944.811200000345707, 99007.327099999412894 ], [ 99944.631199999712408, 99007.237099999561906 ], [ 99944.451200000010431, 99007.147099999710917 ], [ 99944.261199999600649, 99007.077099999412894 ], [ 99944.081199999898672, 99006.997199999168515 ], [ 99943.891200000420213, 99006.93720000050962 ], [ 99943.701200000010431, 99006.867200000211596 ], [ 99943.511199999600649, 99006.817199999466538 ], [ 99943.311200000345707, 99006.767200000584126 ], [ 99943.121199999935925, 99006.72719999961555 ] ] ] } },
{ "type": "Feature", "properties": { "CODIGO_PLA": "02389", "NUMERO_PRE": "1", "NUMERO_EQU": "1", "IDENTIFICA": "A-119", "SUELO": "Urbano", "CODIGO_EQU": "9-0009", "RUPI": "1 4087", "CODIGO_PI_": "A-119", "NOMBRE": "PLAZA DE MERCADO LUCERO", "DIRECCION": "KR 17 F 69 A 32 SUR", "TELEFONO": "", "SERVICIO_S": "9", "CHIP": "AAA0023OXMS", "CODIGO_UPZ": "67", "CODIGO_LOC": "19", "CODIGO_UPR": "0", "AREA_PREDI": "3.89394434741e+03", "AREA_CONST": "5.70190000000e+03", "HOMOLOGADO": "", "TIPO": "131", "ESCALA_POT": "2", "AREA_OCUPA": "0.00000000000e+00", "CARACTER": "PUBL", "FUNCION": "2", "ACTO_ADMIN": "DEC", "NUMERO_ACT": "555", "FECHA_ACTO": "29\/12\/2021", "NORMATIVA": "En el marco del Decreto 555 del 29 de diciembre de 2021 - Por el cual se adopta la revisión general del Plan de Ordenamiento Territorial de Bogotá", "OBSERVACIO": "", "ESCALA_CAP": "1000", "FECHA_CAPT": "29\/12\/2021", "RESPONSABL": "541", "SHAPE_Leng": "2.52194077788e+02", "SHAPE_Area": "3.89394434741e+03" }, "geometry": { "type": "Polygon", "coordinates": [ [ [ 93144.412200000137091, 94789.203199999406934 ], [ 93092.860999999567866, 94771.52140000090003 ], [ 93089.983599999919534, 94774.716499999165535 ], [ 93082.177699999883771, 94836.926799999549985 ], [ 93084.625799999572337, 94839.700999999418855 ], [ 93133.319299999624491, 94861.859899999573827 ], [ 93144.412200000137091, 94789.203199999406934 ] ] ] } },
{ "type": "Feature", "properties": { "CODIGO_PLA": "02240", "NUMERO_PRE": "1", "NUMERO_EQU": "1", "IDENTIFICA": "A-180", "SUELO": "Urbano", "CODIGO_EQU": "9-0022", "RUPI": "1 4089", "CODIGO_PI_": "A-180", "NOMBRE": "PLAZA DE MERCADO 7 DE AGOSTO", "DIRECCION": "AK 24 66 4", "TELEFONO": "346 20 81", "SERVICIO_S": "9", "CHIP": "AAA0086EMJH", "CODIGO_UPZ": "98", "CODIGO_LOC": "12", "CODIGO_UPR": "0", "AREA_PREDI": "3.16250000000e+03", "AREA_CONST": "3.53870000000e+03", "HOMOLOGADO": "", "TIPO": "131", "ESCALA_POT": "2", "AREA_OCUPA": "0.00000000000e+00", "CARACTER": "PUBL", "FUNCION": "2", "ACTO_ADMIN": "DEC", "NUMERO_ACT": "555", "FECHA_ACTO": "29\/12\/2021", "NORMATIVA": "En el marco del Decreto 555 del 29 de diciembre de 2021 - Por el cual se adopta la revisión general del Plan de Ordenamiento Territorial de Bogotá", "OBSERVACIO": "", "ESCALA_CAP": "1000", "FECHA_CAPT": "29\/12\/2021", "RESPONSABL": "541", "SHAPE_Leng": "2.26048423141e+02", "SHAPE_Area": "3.15742556459e+03" }, "geometry": { "type": "Polygon", "coordinates": [ [ [ 100843.669099999591708, 106756.514799999073148 ], [ 100814.510599999688566, 106715.235099999234 ], [ 100764.057, 106750.807199999690056 ], [ 100792.0028, 106792.941700000315905 ], [ 100843.669099999591708, 106756.514799999073148 ] ] ] } },
{ "type": "Feature", "properties": { "CODIGO_PLA": "00920", "NUMERO_PRE": "1", "NUMERO_EQU": "1", "IDENTIFICA": "A-189", "SUELO": "Urbano", "CODIGO_EQU": "9-0014", "RUPI": "1211 55", "CODIGO_PI_": "A-189", "NOMBRE": "PLAZA DE MERCADO SAN BENITO", "DIRECCION": "KR 17 56 26 SUR", "TELEFONO": "", "SERVICIO_S": "9", "CHIP": "AAA0020TAHK", "CODIGO_UPZ": "62", "CODIGO_LOC": "6", "CODIGO_UPR": "0", "AREA_PREDI": "2.17950000000e+03", "AREA_CONST": "1.54420000000e+03", "HOMOLOGADO": "", "TIPO": "131", "ESCALA_POT": "3", "AREA_OCUPA": "0.00000000000e+00", "CARACTER": "PUBL", "FUNCION": "2", "ACTO_ADMIN": "DEC", "NUMERO_ACT": "555", "FECHA_ACTO": "29\/12\/2021", "NORMATIVA": "En el marco del Decreto 555 del 29 de diciembre de 2021 - Por el cual se adopta la revisión general del Plan de Ordenamiento Territorial de Bogotá", "OBSERVACIO": "", "ESCALA_CAP": "1000", "FECHA_CAPT": "29\/12\/2021", "RESPONSABL": "541", "SHAPE_Leng": "1.78155477998e+02", "SHAPE_Area": "1.80132791344e+03" }, "geometry": { "type": "Polygon", "coordinates": [ [ [ 94076.862700000405312, 96384.201199999079108 ], [ 94040.059700000099838, 96339.101099999621511 ], [ 94016.706699999980628, 96358.300899999216199 ], [ 94023.137299999594688, 96366.482999999076128 ], [ 94029.713200000114739, 96374.850199999287724 ], [ 94043.493300000205636, 96392.39159999974072 ], [ 94049.715699999593198, 96400.314899999648333 ], [ 94053.618200000375509, 96404.282299999147654 ], [ 94076.862700000405312, 96384.201199999079108 ] ] ] } },
{ "type": "Feature", "properties": { "CODIGO_PLA": "01865", "NUMERO_PRE": "1", "NUMERO_EQU": "2", "IDENTIFICA": "A-195", "SUELO": "Urbano", "CODIGO_EQU": "9-0019", "RUPI": "1 4090", "CODIGO_PI_": "A-195", "NOMBRE": "PLAZA DE MERCADO SAMPER MENDOZA", "DIRECCION": "CL 22 A 25 52", "TELEFONO": "340 86 49", "SERVICIO_S": "9", "CHIP": "AAA0073AOPP", "CODIGO_UPZ": "102", "CODIGO_LOC": "14", "CODIGO_UPR": "0", "AREA_PREDI": "5.23368956800e+03", "AREA_CONST": "5.15191524500e+03", "HOMOLOGADO": "", "TIPO": "131", "ESCALA_POT": "3", "AREA_OCUPA": "0.00000000000e+00", "CARACTER": "PUBL", "FUNCION": "2", "ACTO_ADMIN": "DEC", "NUMERO_ACT": "555", "FECHA_ACTO": "29\/12\/2021", "NORMATIVA": "En el marco del Decreto 555 del 29 de diciembre de 2021 - Por el cual se adopta la revisión general del Plan de Ordenamiento Territorial de Bogotá", "OBSERVACIO": "", "ESCALA_CAP": "1000", "FECHA_CAPT": "29\/12\/2021", "RESPONSABL": "541", "SHAPE_Leng": "3.60363524539e+02", "SHAPE_Area": "8.09839333184e+03" }, "geometry": { "type": "Polygon", "coordinates": [ [ [ 99425.276399999856949, 102435.375199999660254 ], [ 99397.878100000321865, 102417.156300000846386 ], [ 99348.504300000146031, 102487.571000000461936 ], [ 99380.161799999885261, 102508.634500000625849 ], [ 99380.168300000019372, 102508.638900000602007 ], [ 99414.176099999807775, 102531.26630000025034 ], [ 99425.87569999974221, 102539.050499999895692 ], [ 99427.899400000460446, 102540.397099999710917 ], [ 99429.418999999761581, 102538.098099999129772 ], [ 99430.679800000041723, 102536.190500000491738 ], [ 99433.172899999655783, 102532.418600000441074 ], [ 99473.612499999813735, 102471.234899999573827 ], [ 99475.319600000046194, 102468.652200000360608 ], [ 99472.182400000281632, 102466.566099999472499 ], [ 99441.934299999848008, 102446.452199999243021 ], [ 99425.276399999856949, 102435.375199999660254 ] ] ] } },
{ "type": "Feature", "properties": { "CODIGO_PLA": "01341", "NUMERO_PRE": "1", "NUMERO_EQU": "2", "IDENTIFICA": "A-182", "SUELO": "Urbano", "CODIGO_EQU": "9-0018", "RUPI": "1 1348", "CODIGO_PI_": "A-182", "NOMBRE": "PLAZA DE MERCADO LA CONCORDIA", "DIRECCION": "KR 1 A 14 42", "TELEFONO": "", "SERVICIO_S": "9", "CHIP": "AAA0030KENX", "CODIGO_UPZ": "94", "CODIGO_LOC": "17", "CODIGO_UPR": "0", "AREA_PREDI": "4.27910000000e+03", "AREA_CONST": "2.07390000000e+03", "HOMOLOGADO": "", "TIPO": "131", "ESCALA_POT": "2", "AREA_OCUPA": "0.00000000000e+00", "CARACTER": "PUBL", "FUNCION": "2", "ACTO_ADMIN": "DEC", "NUMERO_ACT": "555", "FECHA_ACTO": "29\/12\/2021", "NORMATIVA": "En el marco del Decreto 555 del 29 de diciembre de 2021 - Por el cual se adopta la revisión general del Plan de Ordenamiento Territorial de Bogotá", "OBSERVACIO": "", "ESCALA_CAP": "1000", "FECHA_CAPT": "29\/12\/2021", "RESPONSABL": "541", "SHAPE_Leng": "2.53868847030e+02", "SHAPE_Area": "4.27913537028e+03" }, "geometry": { "type": "Polygon", "coordinates": [ [ [ 100989.5028, 100186.803600000217557 ], [ 100989.347699999809265, 100186.802799999713898 ], [ 100989.225499999709427, 100186.805600000545382 ], [ 100989.070399999619, 100186.813400000333786 ], [ 100988.916400000452995, 100186.825999999418855 ], [ 100988.771999999880791, 100186.842399999499321 ], [ 100988.694299999624491, 100186.852900000289083 ], [ 100988.552199999801815, 100186.87529999949 ], [ 100988.418100000359118, 100186.900399999693036 ], [ 100988.240000000223517, 100186.939799999818206 ], [ 100962.614199999719858, 100193.651100000366569 ], [ 100962.400399999693036, 100193.705800000578165 ], [ 100962.204099999741, 100193.758600000292063 ], [ 100961.939899999648333, 100193.833100000396371 ], [ 100961.714100000448525, 100193.9002 ], [ 100961.460699999704957, 100193.979199999943 ], [ 100961.123200000263751, 100194.090600000694394 ], [ 100960.8081, 100194.200999999418855 ], [ 100960.53760000038892, 100194.300899999216199 ], [ 100960.203200000338256, 100194.43099999987 ], [ 100959.9972, 100194.514799999073148 ], [ 100959.835099999792874, 100194.582800000905991 ], [ 100959.446399999782443, 100194.753200000151992 ], [ 100959.075000000186265, 100194.925899999216199 ], [ 100958.70920000039041, 100195.105900000780821 ], [ 100958.345700000412762, 100195.294700000435114 ], [ 100958.057500000111759, 100195.45160000026226 ], [ 100957.732599999755621, 100195.636499999091029 ], [ 100957.474499999545515, 100195.789599999785423 ], [ 100957.243599999696016, 100195.931500000879169 ], [ 100956.890499999747, 100196.157299999147654 ], [ 100956.535899999551475, 100196.395600000396371 ], [ 100956.282599999569356, 100196.573100000619888 ], [ 100956.084699999541044, 100196.716199999675155 ], [ 100955.84360000025481, 100196.895999999716878 ], [ 100955.588399999774992, 100197.0929000005126 ], [ 100955.357499999925, 100197.2774 ], [ 100955.0822, 100197.488500000908971 ], [ 100954.804999999701977, 100197.7434 ], [ 100954.585199999623001, 100197.939400000497699 ], [ 100954.327100000344217, 100198.1776 ], [ 100954.113400000147521, 100198.381799999624491 ], [ 100953.935600000433624, 100198.556500000879169 ], [ 100953.761800000444055, 100198.732100000604987 ], [ 100953.571899999864399, 100198.929300000891089 ], [ 100953.385099999606609, 100199.129000000655651 ], [ 100953.200899999588728, 100199.331800000742078 ], [ 100953.004499999806285, 100199.554899999872 ], [ 100952.780199999921, 100199.818399999290705 ], [ 100952.585900000296533, 100200.054899999872 ], [ 100952.401800000108778, 100200.286800000816584 ], [ 100952.217799999751151, 100200.526100000366569 ], [ 100952.066599999554455, 100200.728900000452995 ], [ 100951.922600000165403, 100200.927300000563264 ], [ 100951.7719, 100201.141200000420213 ], [ 100951.606800000183284, 100201.383199999108911 ], [ 100951.4512, 100201.618599999696016 ], [ 100951.2988, 100201.856899999082088 ], [ 100951.15610000025481, 100202.0877 ], [ 100951.010900000110269, 100202.330299999564886 ], [ 100950.877999999560416, 100202.560000000521541 ], [ 100950.731800000183284, 100202.822000000625849 ], [ 100950.597799999639392, 100203.070800000801682 ], [ 100950.453599999658763, 100203.349300000816584 ], [ 100950.334499999880791, 100203.587899999693036 ], [ 100950.13910000026226, 100203.999900000169873 ], [ 100950.010300000198185, 100204.286100000143051 ], [ 100949.886599999852479, 100204.573999999091029 ], [ 100949.784900000318885, 100204.820900000631809 ], [ 100949.647300000302494, 100205.172700000926852 ], [ 100949.558500000275671, 100205.411299999803305 ], [ 100949.439899999648333, 100205.746600000187755 ], [ 100949.314399999566376, 100206.125 ], [ 100949.228799999691546, 100206.400599999353 ], [ 100949.121100000105798, 100206.769999999552965 ], [ 100948.965800000354648, 100207.360600000247359 ], [ 100948.8443, 100207.888199999928 ], [ 100948.763600000180304, 100208.285000000149012 ], [ 100948.685600000433624, 100208.717299999669194 ], [ 100948.5943, 100209.319299999624491 ], [ 100948.535000000149012, 100209.805800000205636 ], [ 100948.4824, 100210.369400000199676 ], [ 100948.445600000210106, 100210.960699999704957 ], [ 100948.4287, 100211.48340000025928 ], [ 100948.426099999807775, 100211.974700000137091 ], [ 100948.437599999830127, 100212.498800000175834 ], [ 100948.455599999987, 100212.888299999758601 ], [ 100948.480899999849498, 100213.267300000414252 ], [ 100948.518199999816716, 100213.689999999478459 ], [ 100948.556099999696016, 100214.035599999129772 ], [ 100948.621500000357628, 100214.530500000342727 ], [ 100948.703099999576807, 100215.041500000283122 ], [ 100948.834300000220537, 100215.7204 ], [ 100948.938900000415742, 100216.183900000527501 ], [ 100949.0252, 100216.530500000342727 ], [ 100949.2006, 100217.161299999803305 ], [ 100949.425800000317395, 100217.868300000205636 ], [ 100949.437376534493524, 100218.0780384640384 ], [ 100949.474053440470016, 100218.284869418988819 ], [ 100949.535299999639392, 100218.485799999908 ], [ 100949.704099999741, 100218.922599999234 ], [ 100949.941200000233948, 100219.487800000235438 ], [ 100950.096300000324845, 100219.831900000572205 ], [ 100950.230511128873331, 100219.969192078875494 ], [ 100950.346989952769945, 100220.121817192717572 ], [ 100950.44400000013411, 100220.287499999627471 ], [ 100981.5082, 100268.483799999579787 ], [ 100981.614099999889731, 100268.688500000163913 ], [ 100981.700500000268221, 100268.847699999809265 ], [ 100981.827100000344217, 100269.069399999454618 ], [ 100981.975999999791384, 100269.314899999648333 ], [ 100982.145999999716878, 100269.5777000002563 ], [ 100982.272599999792874, 100269.762299999594688 ], [ 100982.449799999594688, 100270.007500000298023 ], [ 100982.634399999864399, 100270.247300000861287 ], [ 100982.876799999736249, 100270.5493 ], [ 100983.022300000302494, 100270.727199999616 ], [ 100983.188799999654293, 100270.903400000184774 ], [ 100983.353400000371039, 100271.0614 ], [ 100983.616899999789894, 100271.320000000298023 ], [ 100983.805499999783933, 100271.494200000539422 ], [ 100984.0619, 100271.717599999159575 ], [ 100984.277700000442564, 100271.894400000572205 ], [ 100984.488300000317395, 100272.057700000703335 ], [ 100984.753200000151992, 100272.2511 ], [ 100984.980000000447035, 100272.406700000166893 ], [ 100985.271999999880791, 100272.594399999827147 ], [ 100985.41399999987, 100272.680700000375509 ], [ 100985.694899999536574, 100272.842499999329448 ], [ 100985.892699999734759, 100272.949200000613928 ], [ 100986.174100000411272, 100273.091900000348687 ], [ 100986.345099999569356, 100273.173100000247359 ], [ 100986.659799999557436, 100273.313100000843406 ], [ 100986.8229, 100273.380699999630451 ], [ 100987.123999999836087, 100273.496999999508262 ], [ 100987.371199999936, 100273.5844 ], [ 100987.595499999821186, 100273.657800000160933 ], [ 100987.82120000012219, 100273.725700000301003 ], [ 100988.080299999564886, 100273.796900000423193 ], [ 100988.2889, 100273.848899999633431 ], [ 100988.499699999578297, 100273.8969 ], [ 100988.689799999818206, 100273.93610000051558 ], [ 100988.9435, 100273.982599999755621 ], [ 100989.197800000198185, 100274.022700000554323 ], [ 100989.476599999703467, 100274.0592 ], [ 100989.697399999946, 100274.082599999383092 ], [ 100989.955699999816716, 100274.103800000622869 ], [ 100990.199900000356138, 100274.117900000885129 ], [ 100990.4002, 100274.125 ], [ 100990.601800000295043, 100274.128399999812245 ], [ 100990.923299999908, 100274.12529999949 ], [ 100991.2642, 100274.111099999397993 ], [ 100991.467000000178814, 100274.097300000488758 ], [ 100991.770200000144541, 100274.068900000303984 ], [ 100992.129300000146031, 100274.023700000718236 ], [ 100992.413200000301003, 100273.978700000792742 ], [ 100992.731300000101328, 100273.918500000610948 ], [ 100993.012000000104308, 100273.856599999591708 ], [ 100993.271999999880791, 100273.791899999603629 ], [ 100993.5592, 100273.712099999189377 ], [ 100993.856999999843538, 100273.6195 ], [ 100994.121799999848008, 100273.528699999675155 ], [ 100994.377500000409782, 100273.433399999514222 ], [ 100994.743499999866, 100273.283099999651313 ], [ 100995.078599999658763, 100273.130599999800324 ], [ 100995.3295, 100273.006699999794364 ], [ 100995.622700000181794, 100272.850999999791384 ], [ 100995.906499999575317, 100272.688300000503659 ], [ 100996.224899999797344, 100272.49100000038743 ], [ 100996.448900000192225, 100272.342299999669194 ], [ 100996.650500000454485, 100272.200999999418855 ], [ 100996.873999999836087, 100272.035700000822544 ], [ 100997.017699999734759, 100271.9243 ], [ 100997.28760000038892, 100271.704 ], [ 101029.322100000455976, 100250.968299999833107 ], [ 101029.53870000038296, 100250.837099999189377 ], [ 101029.662200000137091, 100250.749199999496341 ], [ 101029.7593, 100250.676400000229478 ], [ 101029.885900000110269, 100250.573100000619888 ], [ 101029.9764, 100250.492699999362 ], [ 101030.069500000216067, 100250.403699999675155 ], [ 101030.165199999697506, 100250.3048 ], [ 101030.2341, 100250.228399999439716 ], [ 101030.32799999975, 100250.116299999878 ], [ 101030.432300000451505, 100249.979399999603629 ], [ 101030.493800000287592, 100249.89130000025034 ], [ 101030.574199999682605, 100249.766699999570847 ], [ 101030.659, 100249.620699999853969 ], [ 101030.729299999773502, 100249.485799999908 ], [ 101030.786600000225008, 100249.362999999895692 ], [ 101030.855499999597669, 100249.196399999782443 ], [ 101030.901100000366569, 100249.069700000807643 ], [ 101030.941499999724329, 100248.941400000825524 ], [ 101030.981599999591708, 100248.793400000780821 ], [ 101031.008899999782443, 100248.672800000756979 ], [ 101031.032399999909, 100248.5493 ], [ 101031.053799999878, 100248.405200000852346 ], [ 101031.069899999536574, 100248.247899999842048 ], [ 101031.077499999664724, 100248.126900000497699 ], [ 101031.080500000156462, 100248.0296 ], [ 101031.080500000156462, 100247.92 ], [ 101031.0756, 100247.786299999803305 ], [ 101031.069899999536574, 100247.699799999594688 ], [ 101031.057900000363588, 100247.57880000025034 ], [ 101031.043399999849498, 100247.469499999657273 ], [ 101031.039666432814556, 100247.409374730545096 ], [ 101031.046299999579787, 100247.349500000476837 ], [ 101031.019500000402331, 100247.246400000527501 ], [ 101030.982200000435114, 100247.116100000217557 ], [ 101030.956899999640882, 100247.035199999809265 ], [ 101030.922899999655783, 100246.933199999853969 ], [ 101030.891599999741, 100246.846000000834465 ], [ 101030.857900000177324, 100246.759899999946 ], [ 101030.806900000199676, 100246.632999999448657 ], [ 100998.1343, 100196.139499999582767 ], [ 100996.886, 100194.20130000077188 ], [ 100993.670300000347197, 100189.230200000107288 ], [ 100993.625199999660254, 100189.1557 ], [ 100993.560899999924, 100189.05460000038147 ], [ 100993.485299999825656, 100188.942299999296665 ], [ 100993.432500000111759, 100188.867599999532104 ], [ 100993.358900000341237, 100188.768100000917912 ], [ 100993.257199999876, 100188.638699999079108 ], [ 100993.195600000210106, 100188.564400000497699 ], [ 100993.134600000455976, 100188.493499999866 ], [ 100993.013299999758601, 100188.360200000926852 ], [ 100992.937099999748, 100188.281300000846386 ], [ 100992.859000000171363, 100188.204099999741 ], [ 100992.807799999602139, 100188.154999999329448 ], [ 100992.708999999798834, 100188.064400000497699 ], [ 100992.620799999684095, 100187.987500000745058 ], [ 100992.511199999600649, 100187.896999999880791 ], [ 100992.4309, 100187.83390000090003 ], [ 100992.342299999669194, 100187.767200000584126 ], [ 100992.259600000455976, 100187.707800000905991 ], [ 100992.153099999763072, 100187.634899999946 ], [ 100991.992600000463426, 100187.532600000500679 ], [ 100991.817099999636412, 100187.430099999532104 ], [ 100991.651100000366569, 100187.341700000688434 ], [ 100991.513899999670684, 100187.274700000882149 ], [ 100991.369099999777973, 100187.2094 ], [ 100991.280399999581277, 100187.172199999914 ], [ 100991.187099999748, 100187.135099999606609 ], [ 100991.059899999760091, 100187.087999999523163 ], [ 100990.977300000376999, 100187.059599999338388 ], [ 100990.877299999818206, 100187.027300000190735 ], [ 100990.742999999783933, 100186.987500000745058 ], [ 100990.576799999923, 100186.943900000303984 ], [ 100990.411600000225008, 100186.906600000336766 ], [ 100990.255800000391901, 100186.876800000667572 ], [ 100990.122899999842048, 100186.855399999767542 ], [ 100989.9348, 100186.831399999558926 ], [ 100989.767300000414252, 100186.816099999472499 ], [ 100989.636900000274181, 100186.808199999853969 ], [ 100989.5028, 100186.803600000217557 ] ] ] } },
{ "type": "Feature", "properties": { "CODIGO_PLA": "00353", "NUMERO_PRE": "1", "NUMERO_EQU": "1", "IDENTIFICA": "A-118", "SUELO": "Urbano", "CODIGO_EQU": "9-0004", "RUPI": "1 164", "CODIGO_PI_": "A-118", "NOMBRE": "PLAZA DE MERCADO LAS FERIAS", "DIRECCION": "CL 74 B 69 Q 31", "TELEFONO": "240 86 94", "SERVICIO_S": "9", "CHIP": "AAA0059HJRU", "CODIGO_UPZ": "26", "CODIGO_LOC": "10", "CODIGO_UPR": "0", "AREA_PREDI": "4.89560000000e+03", "AREA_CONST": "4.85216000000e+03", "HOMOLOGADO": "", "TIPO": "131", "ESCALA_POT": "2", "AREA_OCUPA": "0.00000000000e+00", "CARACTER": "PUBL", "FUNCION": "2", "ACTO_ADMIN": "DEC", "NUMERO_ACT": "555", "FECHA_ACTO": "29\/12\/2021", "NORMATIVA": "En el marco del Decreto 555 del 29 de diciembre de 2021 - Por el cual se adopta la revisión general del Plan de Ordenamiento Territorial de Bogotá", "OBSERVACIO": "", "ESCALA_CAP": "1000", "FECHA_CAPT": "29\/12\/2021", "RESPONSABL": "541", "SHAPE_Leng": "3.23541128666e+02", "SHAPE_Area": "4.92194340935e+03" }, "geometry": { "type": "Polygon", "coordinates": [ [ [ 98730.818400000222027, 109982.057399999350309 ], [ 98639.091300000436604, 109908.785099999979 ], [ 98622.529099999926984, 109927.910199999809265 ], [ 98694.451700000092387, 110027.370200000703335 ], [ 98730.818400000222027, 109982.057399999350309 ] ] ] } },
{ "type": "Feature", "properties": { "CODIGO_PLA": "02416", "NUMERO_PRE": "1", "NUMERO_EQU": "1", "IDENTIFICA": "A-114", "SUELO": "Urbano", "CODIGO_EQU": "9-0012", "RUPI": "1 4088", "CODIGO_PI_": "A-114", "NOMBRE": "PLAZA DE MERCADO 20 DE JULIO", "DIRECCION": "KR 6 24 A 30 SUR", "TELEFONO": "", "SERVICIO_S": "9", "CHIP": "AAA0002HWTD", "CODIGO_UPZ": "34", "CODIGO_LOC": "4", "CODIGO_UPR": "0", "AREA_PREDI": "4.48094851642e+03", "AREA_CONST": "4.42960000000e+03", "HOMOLOGADO": "", "TIPO": "131", "ESCALA_POT": "2", "AREA_OCUPA": "0.00000000000e+00", "CARACTER": "PUBL", "FUNCION": "2", "ACTO_ADMIN": "DEC", "NUMERO_ACT": "555", "FECHA_ACTO": "29\/12\/2021", "NORMATIVA": "En el marco del Decreto 555 del 29 de diciembre de 2021 - Por el cual se adopta la revisión general del Plan de Ordenamiento Territorial de Bogotá", "OBSERVACIO": "", "ESCALA_CAP": "1000", "FECHA_CAPT": "29\/12\/2021", "RESPONSABL": "541", "SHAPE_Leng": "3.03008608012e+02", "SHAPE_Area": "4.48094851642e+03" }, "geometry": { "type": "Polygon", "coordinates": [ [ [ 98318.547100000083447, 97079.267599999904633 ], [ 98295.086799999698997, 97042.628000000491738 ], [ 98210.40749999973923, 97097.678600000217557 ], [ 98224.057699999772012, 97118.988399999216199 ], [ 98221.957700000144541, 97120.348500000312924 ], [ 98225.197800000198185, 97125.398399999365211 ], [ 98223.267799999564886, 97126.658399999141693 ], [ 98226.497800000011921, 97131.708399999886751 ], [ 98224.657800000160933, 97132.908399999141693 ], [ 98227.997899999842048, 97138.128399999812245 ], [ 98318.547100000083447, 97079.267599999904633 ] ] ] } },
{ "type": "Feature", "properties": { "CODIGO_PLA": "00904", "NUMERO_PRE": "1", "NUMERO_EQU": "1", "IDENTIFICA": "A-116", "SUELO": "Urbano", "CODIGO_EQU": "9-0013", "RUPI": "1 4081", "CODIGO_PI_": "A-116", "NOMBRE": "PLAZA DE MERCADO DE FONTIBON", "DIRECCION": "CL 19 103 26", "TELEFONO": "421 36 06", "SERVICIO_S": "9", "CHIP": "AAA0079UTDE", "CODIGO_UPZ": "75", "CODIGO_LOC": "9", "CODIGO_UPR": "0", "AREA_PREDI": "3.07910000000e+03", "AREA_CONST": "4.10000000000e+03", "HOMOLOGADO": "", "TIPO": "131", "ESCALA_POT": "2", "AREA_OCUPA": "2.12705688200e+03", "CARACTER": "PUBL", "FUNCION": "2", "ACTO_ADMIN": "DEC", "NUMERO_ACT": "555", "FECHA_ACTO": "29\/12\/2021", "NORMATIVA": "En el marco del Decreto 555 del 29 de diciembre de 2021 - Por el cual se adopta la revisión general del Plan de Ordenamiento Territorial de Bogotá", "OBSERVACIO": "", "ESCALA_CAP": "1000", "FECHA_CAPT": "29\/12\/2021", "RESPONSABL": "541", "SHAPE_Leng": "2.51504797031e+02", "SHAPE_Area": "3.07596330108e+03" }, "geometry": { "type": "Polygon", "coordinates": [ [ [ 92612.385200000368059, 108855.368699999526143 ], [ 92541.072300000116229, 108796.463300000876188 ], [ 92519.892900000326335, 108822.424399999902 ], [ 92591.526100000366569, 108880.947000000625849 ], [ 92612.385200000368059, 108855.368699999526143 ] ] ] } },
{ "type": "Feature", "properties": { "CODIGO_PLA": "00928", "NUMERO_PRE": "1", "NUMERO_EQU": "1", "IDENTIFICA": "A-181", "SUELO": "Urbano", "CODIGO_EQU": "9-0015", "RUPI": "1 4095", "CODIGO_PI_": "A-181", "NOMBRE": "PLAZA DE MERCADO DE LA PERSEVERANCIA", "DIRECCION": "KR 5 30 A 40", "TELEFONO": "340 16 90", "SERVICIO_S": "9", "CHIP": "AAA0087JMJH", "CODIGO_UPZ": "92", "CODIGO_LOC": "3", "CODIGO_UPR": "0", "AREA_PREDI": "2.40950000000e+03", "AREA_CONST": "1.79385000000e+03", "HOMOLOGADO": "", "TIPO": "131", "ESCALA_POT": "3", "AREA_OCUPA": "0.00000000000e+00", "CARACTER": "PUBL", "FUNCION": "2", "ACTO_ADMIN": "DEC", "NUMERO_ACT": "555", "FECHA_ACTO": "29\/12\/2021", "NORMATIVA": "En el marco del Decreto 555 del 29 de diciembre de 2021 - Por el cual se adopta la revisión general del Plan de Ordenamiento Territorial de Bogotá", "OBSERVACIO": "", "ESCALA_CAP": "1000", "FECHA_CAPT": "29\/12\/2021", "RESPONSABL": "541", "SHAPE_Leng": "1.97799448724e+02", "SHAPE_Area": "2.40927811633e+03" }, "geometry": { "type": "Polygon", "coordinates": [ [ [ 101314.586699999869, 102249.674100000411272 ], [ 101302.216, 102208.178999999538064 ], [ 101250.052699999883771, 102223.261 ], [ 101260.53760000038892, 102265.787399999797344 ], [ 101314.586699999869, 102249.674100000411272 ] ] ] } },
{ "type": "Feature", "properties": { "CODIGO_PLA": "00191", "NUMERO_PRE": "1", "NUMERO_EQU": "2", "IDENTIFICA": "A-204", "SUELO": "Urbano", "CODIGO_EQU": "9-0003", "RUPI": "1 4083", "CODIGO_PI_": "A-204", "NOMBRE": "PLAZA DE MERCADO SANTANDER", "DIRECCION": "KR 31 26 40 SUR", "TELEFONO": "", "SERVICIO_S": "9", "CHIP": "AAA0013MXTD", "CODIGO_UPZ": "38", "CODIGO_LOC": "15", "CODIGO_UPR": "0", "AREA_PREDI": "4.41250000000e+03", "AREA_CONST": "3.77150000000e+03", "HOMOLOGADO": "", "TIPO": "131", "ESCALA_POT": "2", "AREA_OCUPA": "0.00000000000e+00", "CARACTER": "PRIV", "FUNCION": "2", "ACTO_ADMIN": "DEC", "NUMERO_ACT": "555", "FECHA_ACTO": "29\/12\/2021", "NORMATIVA": "En el marco del Decreto 555 del 29 de diciembre de 2021 - Por el cual se adopta la revisión general del Plan de Ordenamiento Territorial de Bogotá", "OBSERVACIO": "", "ESCALA_CAP": "1000", "FECHA_CAPT": "29\/12\/2021", "RESPONSABL": "541", "SHAPE_Leng": "2.78984008162e+02", "SHAPE_Area": "4.41244403846e+03" }, "geometry": { "type": "Polygon", "coordinates": [ [ [ 96177.549599999561906, 99520.588500000536442 ], [ 96187.349399999715388, 99502.188500000163913 ], [ 96212.749400000087917, 99516.068199999630451 ], [ 96212.81940000038594, 99515.878200000151992 ], [ 96212.899400000460446, 99515.628200000151992 ], [ 96216.829300000332296, 99504.168199999257922 ], [ 96223.409099999815226, 99483.768200000748038 ], [ 96229.21889999974519, 99465.858200000599027 ], [ 96226.028900000266731, 99461.308199999853969 ], [ 96211.508899999782443, 99456.618400000035763 ], [ 96205.408900000154972, 99454.678400000557303 ], [ 96196.308899999596179, 99451.778500000014901 ], [ 96186.558899999596179, 99448.608599999919534 ], [ 96179.128899999894202, 99446.218699999153614 ], [ 96170.508799999952316, 99443.418800000101328 ], [ 96162.07880000025034, 99440.93889999948442 ], [ 96155.149100000038743, 99461.578900000080466 ], [ 96148.489299999549985, 99482.138900000602007 ], [ 96142.339499999769032, 99501.298900000751019 ], [ 96143.519500000402331, 99502.20890000090003 ], [ 96177.379599999636412, 99520.498500000685453 ], [ 96177.509600000455976, 99520.568499999120831 ], [ 96177.549599999561906, 99520.588500000536442 ] ] ] } },
{ "type": "Feature", "properties": { "CODIGO_PLA": "02122", "NUMERO_PRE": "1", "NUMERO_EQU": "1", "IDENTIFICA": "A-120", "SUELO": "Urbano", "CODIGO_EQU": "9-0021", "RUPI": "1 4085", "CODIGO_PI_": "A-120", "NOMBRE": "PLAZA DE MERCADO QUIRIGUA", "DIRECCION": "AC 90 91 52", "TELEFONO": "228 16 50", "SERVICIO_S": "9", "CHIP": "AAA0067BOCX", "CODIGO_UPZ": "29", "CODIGO_LOC": "10", "CODIGO_UPR": "0", "AREA_PREDI": "7.95801000000e+03", "AREA_CONST": "3.80890000000e+03", "HOMOLOGADO": "", "TIPO": "131", "ESCALA_POT": "1", "AREA_OCUPA": "0.00000000000e+00", "CARACTER": "PUBL", "FUNCION": "2", "ACTO_ADMIN": "DEC", "NUMERO_ACT": "555", "FECHA_ACTO": "29\/12\/2021", "NORMATIVA": "En el marco del Decreto 555 del 29 de diciembre de 2021 - Por el cual se adopta la revisión general del Plan de Ordenamiento Territorial de Bogotá", "OBSERVACIO": "", "ESCALA_CAP": "1000", "FECHA_CAPT": "29\/12\/2021", "RESPONSABL": "541", "SHAPE_Leng": "3.96178787260e+02", "SHAPE_Area": "7.84740322513e+03" }, "geometry": { "type": "Polygon", "coordinates": [ [ [ 97776.24129999987781, 112966.004899999126792 ], [ 97757.185800000093877, 112946.876599999144673 ], [ 97646.355399999767542, 113051.748800000175834 ], [ 97737.939399999566376, 113070.873099999502301 ], [ 97740.644799999892712, 113071.495500000193715 ], [ 97749.805399999953806, 113073.603000000119209 ], [ 97750.322999999858439, 113069.471499999985 ], [ 97750.854399999603629, 113065.204600000753999 ], [ 97754.347099999897182, 113051.543899999931 ], [ 97757.286999999545515, 113040.114800000563264 ], [ 97757.992700000293553, 113037.300699999555945 ], [ 97759.474999999627471, 113031.509400000795722 ], [ 97760.640599999576807, 113026.955499999225 ], [ 97761.933199999853969, 113021.906099999323487 ], [ 97764.5614, 113011.637399999424815 ], [ 97776.24129999987781, 112966.004899999126792 ] ] ] } },
{ "type": "Feature", "properties": { "CODIGO_PLA": "02327", "NUMERO_PRE": "1", "NUMERO_EQU": "2", "IDENTIFICA": "A-202", "SUELO": "Urbano", "CODIGO_EQU": "9-0024", "RUPI": "1 4082", "CODIGO_PI_": "A-202", "NOMBRE": "PLAZA DE MERCADO TRINIDAD GALAN", "DIRECCION": "KR 60 4 B 24", "TELEFONO": "", "SERVICIO_S": "9", "CHIP": "AAA0038JLTD", "CODIGO_UPZ": "43", "CODIGO_LOC": "16", "CODIGO_UPR": "0", "AREA_PREDI": "4.78500000000e+03", "AREA_CONST": "2.50860000000e+03", "HOMOLOGADO": "", "TIPO": "131", "ESCALA_POT": "3", "AREA_OCUPA": "0.00000000000e+00", "CARACTER": "PUBL", "FUNCION": "2", "ACTO_ADMIN": "DEC", "NUMERO_ACT": "555", "FECHA_ACTO": "29\/12\/2021", "NORMATIVA": "En el marco del Decreto 555 del 29 de diciembre de 2021 - Por el cual se adopta la revisión general del Plan de Ordenamiento Territorial de Bogotá", "OBSERVACIO": "", "ESCALA_CAP": "1000", "FECHA_CAPT": "29\/12\/2021", "RESPONSABL": "541", "SHAPE_Leng": "2.83415955981e+02", "SHAPE_Area": "4.78373209102e+03" }, "geometry": { "type": "Polygon", "coordinates": [ [ [ 95387.958800000138581, 102913.191600000485778 ], [ 95383.057099999859929, 102908.617599999532104 ], [ 95319.344700000248849, 102961.854699999094009 ], [ 95354.708200000226498, 103005.276000000536442 ], [ 95356.695700000040233, 103003.533700000494719 ], [ 95369.622899999842048, 102992.484699999914 ], [ 95383.620699999853969, 102980.407800000160933 ], [ 95392.974899999797344, 102972.59180000051856 ], [ 95406.017300000414252, 102960.8991 ], [ 95419.466400000266731, 102948.913100000470877 ], [ 95422.486899999901652, 102946.06980000063777 ], [ 95420.670300000347197, 102944.299900000914931 ], [ 95413.203900000080466, 102937.392000000923872 ], [ 95408.149699999950826, 102932.546900000423193 ], [ 95403.095700000412762, 102927.701999999582767 ], [ 95387.958800000138581, 102913.191600000485778 ] ] ] } },
{ "type": "Feature", "properties": { "CODIGO_PLA": "01034", "NUMERO_PRE": "1", "NUMERO_EQU": "1", "IDENTIFICA": "D-45", "SUELO": "Urbano", "CODIGO_EQU": "9-0016", "RUPI": "1 173", "CODIGO_PI_": "D-45", "NOMBRE": "PLAZA DE MERCADO KENNEDY", "DIRECCION": "CL 42 SUR 78 M 50", "TELEFONO": "", "SERVICIO_S": "9", "CHIP": "AAA0043AOZE", "CODIGO_UPZ": "47", "CODIGO_LOC": "8", "CODIGO_UPR": "0", "AREA_PREDI": "3.65853000000e+03", "AREA_CONST": "2.29665000000e+03", "HOMOLOGADO": "", "TIPO": "131", "ESCALA_POT": "2", "AREA_OCUPA": "0.00000000000e+00", "CARACTER": "PUBL", "FUNCION": "2", "ACTO_ADMIN": "DEC", "NUMERO_ACT": "555", "FECHA_ACTO": "29\/12\/2021", "NORMATIVA": "En el marco del Decreto 555 del 29 de diciembre de 2021 - Por el cual se adopta la revisión general del Plan de Ordenamiento Territorial de Bogotá", "OBSERVACIO": "", "ESCALA_CAP": "1000", "FECHA_CAPT": "29\/12\/2021", "RESPONSABL": "541", "SHAPE_Leng": "2.42597347331e+02", "SHAPE_Area": "3.65853188804e+03" }, "geometry": { "type": "Polygon", "coordinates": [ [ [ 90845.788099999539554, 102558.30460000038147 ], [ 90797.277999999932945, 102529.795099999755621 ], [ 90764.318599999882281, 102585.955299999564886 ], [ 90812.728699999861419, 102614.364700000733137 ], [ 90836.309600000269711, 102574.377599999308586 ], [ 90845.788099999539554, 102558.30460000038147 ] ] ] } },
{ "type": "Feature", "properties": { "CODIGO_PLA": "01871", "NUMERO_PRE": "1", "NUMERO_EQU": "1", "IDENTIFICA": "FP-29", "SUELO": "Urbano", "CODIGO_EQU": "9-0020", "RUPI": "", "CODIGO_PI_": "FP-29", "NOMBRE": "PLAZA DE MERCADO LAS FLORES", "DIRECCION": "DG 38 SUR 80 H 12", "TELEFONO": "", "SERVICIO_S": "9", "CHIP": "AAA0050YDMS", "CODIGO_UPZ": "80", "CODIGO_LOC": "8", "CODIGO_UPR": "0", "AREA_PREDI": "2.01540200000e+04", "AREA_CONST": "1.45217000000e+04", "HOMOLOGADO": "", "TIPO": "131", "ESCALA_POT": "1", "AREA_OCUPA": "0.00000000000e+00", "CARACTER": "PRIV", "FUNCION": "2", "ACTO_ADMIN": "DEC", "NUMERO_ACT": "555", "FECHA_ACTO": "29\/12\/2021", "NORMATIVA": "En el marco del Decreto 555 del 29 de diciembre de 2021 - Por el cual se adopta la revisión general del Plan de Ordenamiento Territorial de Bogotá", "OBSERVACIO": "", "ESCALA_CAP": "1000", "FECHA_CAPT": "29\/12\/2021", "RESPONSABL": "541", "SHAPE_Leng": "6.08496631708e+02", "SHAPE_Area": "2.01539213437e+04" }, "geometry": { "type": "Polygon", "coordinates": [ [ [ 91337.32149999961257, 104083.00870000012219 ], [ 91341.129399999976158, 104063.824799999594688 ], [ 91330.286899999715388, 104066.29590000025928 ], [ 91206.993300000205636, 104093.710599999875 ], [ 91228.578900000080466, 104193.13370000012219 ], [ 91229.526499999687076, 104198.645500000566244 ], [ 91229.666100000031292, 104199.826099999248981 ], [ 91244.593999999575317, 104268.218399999663234 ], [ 91245.52309999987483, 104273.264299999923 ], [ 91255.581500000320375, 104283.559399999678135 ], [ 91279.228000000119209, 104260.268300000578165 ], [ 91360.538099999539554, 104179.1107 ], [ 91355.393099999986589, 104170.807199999690056 ], [ 91352.338200000114739, 104165.050200000405312 ], [ 91347.684399999678135, 104156.243499999866 ], [ 91343.804800000041723, 104150.239199999719858 ], [ 91341.984799999744, 104142.686200000345707 ], [ 91341.578999999910593, 104138.964500000700355 ], [ 91337.387400000356138, 104120.113099999725819 ], [ 91337.021599999628961, 104117.317199999466538 ], [ 91331.996899999678135, 104093.800200000405312 ], [ 91336.556400000117719, 104092.558599999174476 ], [ 91337.32149999961257, 104083.00870000012219 ] ] ] } },
{ "type": "Feature", "properties": { "CODIGO_PLA": "00044", "NUMERO_PRE": "1", "NUMERO_EQU": "1", "IDENTIFICA": "A-153", "SUELO": "Urbano", "CODIGO_EQU": "9-0002", "RUPI": "1 4096", "CODIGO_PI_": "A-153", "NOMBRE": "PLAZA DE MERCADO SAN CARLOS", "DIRECCION": "KR 19 B 50 39 SUR", "TELEFONO": "", "SERVICIO_S": "9", "CHIP": "AAA0013JLUZ", "CODIGO_UPZ": "62", "CODIGO_LOC": "6", "CODIGO_UPR": "0", "AREA_PREDI": "1.37216000000e+03", "AREA_CONST": "1.36280000000e+03", "HOMOLOGADO": "", "TIPO": "131", "ESCALA_POT": "3", "AREA_OCUPA": "0.00000000000e+00", "CARACTER": "PUBL", "FUNCION": "2", "ACTO_ADMIN": "DEC", "NUMERO_ACT": "555", "FECHA_ACTO": "29\/12\/2021", "NORMATIVA": "En el marco del Decreto 555 del 29 de diciembre de 2021 - Por el cual se adopta la revisión general del Plan de Ordenamiento Territorial de Bogotá", "OBSERVACIO": "", "ESCALA_CAP": "1000", "FECHA_CAPT": "29\/12\/2021", "RESPONSABL": "541", "SHAPE_Leng": "1.47731633728e+02", "SHAPE_Area": "1.37215438049e+03" }, "geometry": { "type": "Polygon", "coordinates": [ [ [ 94245.521900000050664, 97137.172100000083447 ], [ 94252.821999999694526, 97119.732300000265241 ], [ 94259.026499999687076, 97104.909900000318885 ], [ 94226.043600000441074, 97090.887499999254942 ], [ 94210.246899999678135, 97128.118100000545382 ], [ 94210.296900000423193, 97128.117900000885129 ], [ 94223.461400000378489, 97132.494400000199676 ], [ 94245.521900000050664, 97137.172100000083447 ] ] ] } },
{ "type": "Feature", "properties": { "CODIGO_PLA": "05728", "NUMERO_PRE": "1", "NUMERO_EQU": "1", "IDENTIFICA": "", "SUELO": "Urbano", "CODIGO_EQU": "9-0044", "RUPI": "2799 24", "CODIGO_PI_": "", "NOMBRE": "PLAZA DE MERCADO BARRIO ADMIRANTE PADILLA", "DIRECCION": "KR 1 A BIS ESTE 76 B  SUR", "TELEFONO": "", "SERVICIO_S": "9", "CHIP": "SIN LOTE", "CODIGO_UPZ": "57", "CODIGO_LOC": "5", "CODIGO_UPR": "0", "AREA_PREDI": "5.83882000980e+02", "AREA_CONST": "5.83882001000e+02", "HOMOLOGADO": "", "TIPO": "131", "ESCALA_POT": "3", "AREA_OCUPA": "0.00000000000e+00", "CARACTER": "PRIV", "FUNCION": "2", "ACTO_ADMIN": "DEC", "NUMERO_ACT": "555", "FECHA_ACTO": "29\/12\/2021", "NORMATIVA": "En el marco del Decreto 555 del 29 de diciembre de 2021 - Por el cual se adopta la revisión general del Plan de Ordenamiento Territorial de Bogotá", "OBSERVACIO": "", "ESCALA_CAP": "1000", "FECHA_CAPT": "29\/12\/2021", "RESPONSABL": "541", "SHAPE_Leng": "9.65362412493e+01", "SHAPE_Area": "5.83882000976e+02" }, "geometry": { "type": "Polygon", "coordinates": [ [ [ 95922.098299999721348, 90613.156999999657273 ], [ 95921.979100000113249, 90604.799599999561906 ], [ 95920.354299999773502, 90604.817500000819564 ], [ 95898.960799999535084, 90604.729299999773502 ], [ 95898.846800000406802, 90604.731599999591708 ], [ 95899.076200000010431, 90615.751000000163913 ], [ 95899.527900000102818, 90629.734400000423193 ], [ 95905.847699999809265, 90630.072799999266863 ], [ 95922.94469999987632, 90629.737700000405312 ], [ 95922.888399999588728, 90627.027699999511242 ], [ 95922.098299999721348, 90613.156999999657273 ] ] ] } }
]
}
